LATITUDE	LONGITUDE	GESTORE_DENOMINAZIONE	DES	DESCRIZIONE	ANNO	CENNI_STORICI	INDIRIZZO	DENOMINAZIONE	STILE
38.1099097	13.3544897	Arcidiocesi di Palermo	Chiese	Chiese e Oratori	1765	"Questo sito ha visto diverse edificazioni di carattere religioso, a partire da una prima chiesa la cui origine risale al IV secolo. Vi fu poi una chiesa normanna appartenuta ai Padri Cistercensi; quindi pass? ai Padri Olivetani del convento di S. Maria di Monte Oliveto allo Spasimo che riedificarono la chiesa a partire dal 1765. L'edificio presenta belle forme di un barocco maturo tendente al classicismo. La facciata ? impostata su due ordini, delimitati orizzontalmente da cornicioni e scandita da robuste paraste; il portale ? semplice con alto timpano curvilineo spezzato. L'interno ? ad unica navata con tre cappelle semicircolari per lato. Due cappelle curvilinee pi? ampie formano una sorta di transetto; l'abside ha profondo catino semicircolare. Le pareti sono coperte da una delicata decorazione di stucchi in stile rococ?. Inoltre si possono ammirare interessanti affreschi e arredi del settecento e ottocento, come per esempio l'affresco della volta dell'abside con la ""Madonna che d? l'abito a S. Benedetto"", eseguito da Giuseppe Tresca, come i due tondi ad olio posti lateralmente, e il Crocifisso con reliquiario settecentesco di Giuseppe Marabitti posto nella terza cappella a destra. ? possibile visitare il campanile annesso alla chiesa con la sua forma slanciata, di altezza modesta, raggiunge circa 20 metri da terra, e da dove si pu? godere la vista di un panorama fantastico."	Via dei Benedettini, 16	Chiesa di San Giuseppe Cafasso (ex S.Giorgio in Kemonia)	Barocco
38.1149143	13.3547395	Arcidiocesi di Palermo	Monumenti	Monumenti	603	Elegante costruzione tardo-cinquecentesca che utilizza colonne e capitelli di un preesistente edificio del XI secolo, i cui resti sono inglobati nella adiacente cappella di S. Maria l'Incoronata, preceduta da un pronao ed ? costituita da un unico vano absidato	Via Matteo Bonello	Loggia dell'Incoronazione	Bizantino,Arabo-Normanno
38.1100937	13.3521357	Fondazione FEDERICO II	Palazzi	Palazzi	900		Piazza Indipendenza	Palazzo Reale o dei Normanni	Arabo-Normanno
38.1050143	13.3813949	Arcidiocesi di Palermo	Chiese	Chiese e Oratori	1071	"Costruita nel 1071, rappresenta la prima costruzione normanna in citt?. Il motivo del nome ? legato alla presenza di un ospedale, nel XII secolo, adibito all'accoglienza dei lebbrosi. Con i restauri degli anni 1919-30 la struttura venne fortemente trasformata; venne smantellato il prospetto a volute con campanile centrale e furono tolti tutti gli stucchi interni, per rendere nudo ed uniforme il paramento. All'esterno si presenta oggi come un volume nitido e scarno con superfici murarie a conci squadrati; sull'ingresso ? stato costruito un campanile con cupoletta. L'interno ? a tre navate con soffitto ligneo, dove ? mantenuta la vigorosa struttura a pilastri che distribuisce le navate, separate dal santuario da differenze di quota; il santuario ha impianto centrico e prende slancio nella cupola, poggiante su otto archetti pensili. L'abside principale ? introdotta da colonne inalveolate di cui una con iscrizioni cufiche nel capitello. Vi si conserva un interessante ""Crocifisso"" dipinto della met? del XV secolo."	Via Salvatore Cappello, 38	Chiesa di San Giovanni dei Lebbrosi	Arabo-Normanno
38.105095	13.374949	Comune di Palermo	Monumenti	Monumenti	1113		Piazza Ponte dell'Ammiraglio	Ponte dell'Ammiraglio	Normanno
38.1150128	13.3626443	Eparchia di Piana degli Albanesi	Chiese	Chiese e Oratori	1143	"La Chiesa di Santa Maria dell'Ammiraglio fu edificata nel 1143 da Giorgio di Antiochia, ammiraglio di re Ruggero II. Nel XV secolo fu concessa al vicino convento delle suore benedettine, fondato nel 1194 da Goffredo ed Eloisa Martorana; da allora la chiesa venne detta, anche ""Martorana"". L'edificio ? formato dal santuario, che conserva la sua originaria struttura quadrata con cupola sorretta da quattro arconi acuti,tipico dello stile arabo-normanno, e dalle navate barocche, aggiunte alla fine del XVII secolo, coprendo l'atrio d'ingresso, poich?, in origine la chiesa era preceduta da un cortile scoperto su cui si ergeva la torre campanaria, sopraelevata durante il XIV secolo, la quale divenne, nel '600, l'ingresso principale della chiesa. L'ampio interno ? a tre navate con coro retto da colonne provenienti da precedenti edifici normanni posto sull'ingresso. Di notevole interesse sono i mosaici bizantini che ricoprono parte dell'interno e gli affreschi settecenteschi del sottocoro, realizzati da Olivio Sozzi e Guglielmo Borremans. Il profondo presbiterio quadrangolare del 1685 ? decorato da marmi mischi; sull'altare ? un prezioso tabernacolo in lapislazzuli della fine del XVII secolo, e l'""Ascensione"" opera d'impronta raffaellita, dipinta da Vincenzo da Pavia nel 1533. La chiesa fa parte dell'Eparchia di Piana degli Albanesi, diocesi cattolica di rito greco-bizantino della Chiesa Bizantina in Sicilia. Recentemente si sono conclusi i lavori di restauro."	Piazza Bellini, 3	Chiesa Santa Maria dell'Ammiraglio (detta Martorana)	Arabo-Normanno,Barocco
38.1150021	13.362635	Associazione Amici dei Musei Siciliani	Chiese	Chiese e Oratori	1154	Fu costruita nel 1154 sotto il regno di Guglielmo I per volere di Majone da Bari, Grande Ammiraglio del re normanno, quale cappella di un sontuoso palazzo, oggi non pi? esistente. Essa costituisce l'esempio pi? peculiare della cultura architettonica araba al servizio dei sovrani normanni con le tipiche cupole rosse che la sovrastano e la sua forma di parallelepipedo che la caratterizzano. Guglielmo I don?, nel 1182, la cappella e il palazzo ai Benedettini di Monreale che vi rimasero fino a quando, tutto l'edificio, nel 1787, fu trasformato in ufficio postale. Le varie manomissioni che sub? l'edificio nel corso dei secoli, avevano alterato profondamente l'aspetto della chiesa, poi riportate alla configurazione originaria dal restauro diretto da Giuseppe Patricolo nel 1882. Le pareti esterne sono vivacizzate dal disegno grafico delle arcate cieche e dalla fine cimasa di coronamento. L'interno, a pianta centrale, ha tre navate divise da colonne con capitelli di reimpiego che sorreggono le arcate acute. Splendidi sono il pavimento a tarsie policrome in marmo e porfido e l'altare in cui sono incisi una croce e i simboli degli evangelisti.	Piazza Bellini, 3	Chiesa di San Cataldo	Arabo-Normanna
38.1168401	13.3445182	Regione Siciliana	Monumenti	Monumenti	1167	"Il palazzo, iniziato durante il regno di Guglielmo I ed ultimato da Guglielmo II intorno al 1167, fu la residenza estiva preferita dai re e dalla sua corte. Il suo nome deriva dall'arabo ""al-Aziz"", ovvero ""splendido"". Durante i secoli ha subito diverse trasformazioni, la pi? rilevante ? sicuramente quella avvenuta nel 1635, dove vi furono apportate aggiunte in stile barocco, ad opera di Giovanni Sandoval. Esternamente si presenta come un blocco cristallino suddiviso in tre ordini orizzontali corrispondenti ai tre piani. Sulla facciata principale si apre un vestibolo detto ""Sala della fontana"", attorno a cui ruotano gli appartamenti delle ali meridionali e settentrionali e la cui decorazione ? di ispirazione tipicamente islamica a pianta quadrangolare trilobata, retto da coppie di colonne; sull'arco di ingresso, invece, ? stato collocato un affresco barocco detto ""diavoli della Zisa"", ovvero una serie di figure che secondo la tradizione ? impossibile contare per la loro disposizione in senso rotatorio. Il pavimento della sala ? attraversato da una canaletta che forma due vasche, quadrate all'esterno e ottagonali all'interno, in cui scorreva l'acqua versata dalla fontana, posta sulla parete di fondo. La sala ? interamente coperta da un rivestimento in marmo sovrastato da una fascia a mosaico a motivi naturalistici, con tondi nella parete della fontana. Di notevole interesse ? il particolare sistema di ventilazione, costituito da camini che consentivano il refrigerio estivo. All'interno del castello ? ospitato il Museo d'arte islamica, con reperti provenienti dall'area del Mediterraneo."	Piazza Guglielmo il Buono	Castello della Zisa	Arabo-Normanno
38.1116229	13.3543969	Associazione Culturale Itinerari del Mediterraneo	Chiese	Chiese e Oratori	1174	"La chiesa normanna , dedicata a S. Cristina, antica patrona della citt?, fu realizzata nel 1174, per volere dell'Arcivescovo Gualtiero Offamilio, lo stesso che fece costruire la Cattedrale, nel luogo dove nel 1160 una nave vi trasport? le reliquie di S. Cristina provenienti da Bolsena. La chiesetta venne gestita dai Cistercensi per qualche anno. Al tempo dell'Imperatore Enrico VI di Hohenstaufen (1165-1197) entr? tra i beni della Cattedrale. Nel 1572, la Compagnia della SS. Trinit?, detta dei ""Rossi"" per la cappa di tale colore indossata dai confrati, ne acquis? la disponibilit?. Questi si prefiggevano di aiutare i pellegrini diretti in Terra Santa e verso altri luoghi di culto, ai quali offrivano ristoro, riparo e cure, per almeno tre giorni, presso l'attiguo Ospizio (ormai demolito) sorto a questo scopo nel rispetto degli obblighi propri della Confraternita. L'involucro squadrato e le massicce murature interne, sembrano appartenere al primo ordine di un edificio a torre, adibito successivamente a luogo di culto. Il suo interno ? a pianta greca su base quadrata di piccole dimensioni con archi ogivali, che sostengono la copertura a crociera e delineano tre ambulacri, coperti a botte: sulla parete settentrionale ? la tribuna, aggiunta alla fine del XVI secolo e decorata con stucchi nel secolo successivo.."	Via dei Pellegrini, 2	Chiesa di Santa Cristina La Vetere	Arabo-Normanno
38.1081386	13.3425586	Regione Siciliana	Monumenti	Monumenti	1180	"Il termine ""cuba"" viene dall'arabo ""Qubba"", ovvero ""cupola"", e fu costruita nel 1180 per il Re Guglielmo II, al centro di un ampio parco che si chiamava ""Genoardo"" (dall'arabo ""Jannatt al-ard"", ovvero ""paradiso in Terra""). L'uso originale della struttura era quello di padiglione di delizie, ossia di un luogo in cui il re e la sua corte potevano trascorrere ore piacevoli al fresco. La sua forma ? rettangolare con, al centro di ogni lato, quattro corpi a forma di torre. Il corpo pi? sporgente costituiva l'unico accesso al palazzo dalla terraferma. I muri esterni sono ornati con arcate ogivali. Nella parte inferiore si aprono alcune finestre separate da pilastrini in muratura. I muri spessi e le poche finestre erano dovuti ad esigenze climatiche, offrendo maggiore resistenza al calore del sole. L'interno era diviso in tre ambienti allineati e comunicanti tra loro, ed al centro si possono ammirare i resti di una splendida fontana in marmo, tipico elemento delle costruzioni arabe necessario per rinfrescare l'aria. La sala centrale era abbellita da muqarnas, soluzione architettonica ed ornamentale simile ad una mezza cupola, tipico dello stile arabo. Proprio alla Cuba, Boccaccio ambient? una delle novelle del suo Decameron, la sesta della quinta giornata, che racconta la vicenda d'amore tra Gian di Procida e Restituta, una ragazza bellissima rapita per offrirla in dono al re Federico II d'Aragona."	Corso Calatafimi,100	Cuba	Arabo-Normanno
38.1148988	13.3591109	Arcidiocesi di Palermo	Chiese	Chiese e Oratori	1184		Corso Vittorio Emanuele	Cattedrale	Gotico, Barocco, Neoclassico
38.1055353	13.3343745	Regione Siciliana	Monumenti	Monumenti	1184	"Il termine ""cuba"" viene dall'arabo ""Qubba"", ovvero ""cupola"", e fu costruita nel 1180 per il Re Guglielmo II, al centro di un ampio parco che si chiamava ""Genoardo"" (dall'arabo ""Jannatt al-ard"", ovvero ""paradiso in Terra""). L'uso originale della struttura era quello di padiglione di delizie, ossia di un luogo in cui il re e la sua corte potevano trascorrere ore piacevoli al fresco. La sua forma ? rettangolare con, al centro di ogni lato, quattro corpi a forma di torre. Il corpo pi? sporgente costituiva l'unico accesso al palazzo dalla terraferma. I muri esterni sono ornati con arcate ogivali. Nella parte inferiore si aprono alcune finestre separate da pilastrini in muratura. I muri spessi e le poche finestre erano dovuti ad esigenze climatiche, offrendo maggiore resistenza al calore del sole. L'interno era diviso in tre ambienti allineati e comunicanti tra loro, ed al centro si possono ammirare i resti di una splendida fontana in marmo, tipico elemento delle costruzioni arabe necessario per rinfrescare l'aria. La sala centrale era abbellita da muqarnas, soluzione architettonica ed ornamentale simile ad una mezza cupola, tipico dello stile arabo. Proprio alla Cuba, Boccaccio ambient? una delle novelle del suo Decameron, la sesta della quinta giornata, che racconta la vicenda d'amore tra Gian di Procida e Restituta, una ragazza bellissima rapita per offrirla in dono al re Federico II d'Aragona."	Via di Villa Napoli	Cubola	Arabo-Normanno
38.1117578	13.3597192	Arcidiocesi di Palermo	Monumenti	Monumenti	1200		Via Nunzio Nasi, 18	Torre di San Nicolò all'Albergheria	Gotico
38.1171657	13.3633386	Arcidiocesi di Palermo	Chiese	Chiese e Oratori	1200	"Già esistente nel 1220 quando vi fu trasferito il titolo parrocchiale di S. Cataldo. La chiesa faceva parte del quartiere detto Porta di mare o di Patitelli, abitato da artigiani produttori di zoccoli. Durante i secoli il rione dei Patitelli ha cambiato notevolmente fisionomia, fino a non essere pi? identificabile. La chiesa attuale fu definita solo nel XVI secolo e, con il terremoto del 1823, che la danneggi? gravemente, l'edificio ha assunto una configurazione neogotica. Il fulcro verticale dell'organismo architettonico ? rappresentato dalla cupola, terminata nel 1536 e sostenuta da arconi ogivali su agili colonne. Il suo spazio interno, a pianta ""greca"" su base quadrata, fu prolungato dalla realizzazione di una tribuna, dove nel 1709 fu installato il coro ligneo e nel 1789 l'altare maggiore. Alle pareti laterali sono due tele di Gaspare Serenario, ""Cristo e l'adultera"" e ""Cristo e il Centurione"", eseguite nel 1757. Al centro ""S. Carlo Borromeo dipinto da Giuseppe Salerno nei primi decenni del XVII secolo. Una transenna in marmi mischi chiude la tribuna. Nella navata sinistra ? il fonte battesimale, scolpito nel 1755 da Francesco Pennino su disegno di Ignazio Marabitti. Nell'abside di sinistra sono alcuni rilievi in marmo, scolpiti da Antonello Gagini intorno alla met? del '500. Nell'abside di destra ? un dipinto seicentesco, attribuito a Giuseppe Salerno, con ""S. Antonio Abate"". Nella chiesa sono conservate alcune statue in legno, tra cui una Madonna ottocentesca di Giuseppe Bagnasco, e pregevoli Crocifissi lignei. Ai piedi della gradinata, in una teca, ? posto il busto ligneo dell'""Ecce Homo"" eseguito all'inizio del '600 da frate Umile da Petralia ed oggetto di venerazione popolare."	Via Roma 203/A	Chiesa di Sant' Antonio Abate Magno	Neogotico
38.1180209	13.3573658	Arcidiocesi di Palermo	Chiese	Chiese e Oratori	1275		Via Francesco Raimondo, 3	Chiesa di Sant' Agostino	Gotico
38.119582	13.359521	Arcidiocesi di Palermo	Chiese	Chiese e Oratori	1300		Piazza dell'Olivella	Chiesa del SS. Crocifisso	Rinascimentale
38.1184125	13.3630608	Arcidiocesi di Palermo	Chiese	Chiese e Oratori	1339	"Costruita nel 1339 con annesso un piccolo ospedale con oratorio, voluto dalla nobile e ricca Famiglia De Cesario-Pagano, per assistere i pellegrini portatori di malattie, fu completamente rifatta nel 1522, costituendo, con la complessa struttura cinquecentesca, un interessante organismo architettonico che rispecchia, nelle sue varie parti, tutti gli stili avvicendatisi in quel periodo. La chiesa fu sede di un gruppo di confrati che, mossi da spirito pietoso, istituirono la ""Deputazione per la redenzione dei Cattivi"" con la caritatevole finalit? di liberare i cristiani prigionieri (captivi) dei turchi offrendo a quest'ultimi, a titolo di riscatto, le cospicue somme frutto di elemosine e donazioni dei fedeli sensibili alle sorti dei fratelli di fede. La denominazione di Santa Maria La Nova potrebbe derivare dall' ""antico"" edificio di culto parimenti intitolato a Maria sui cui resti sorse il ""nuovo"" tempio. La facciata ? caratterizzata dalla presenza di una interessante loggia a tre arcate, rinserrata tra piloni angolari ad arcatelle cieche che si fermano all'altezza della cornice orizzontale. Sopra il loggiato, sul finire del cinquecento, fu costruito un nuovo oratorio (oggi in disuso). All'interno si distingue il corpo basilicale delle navate, con archi a pieno centro su eleganti capitelli, da quello arioso della tribuna. Nelle navate ancora sussiste il ricco ed elegante addobbo di stucchi rococ?; particolarmente fine il disegno dei due coretti nelle navatelle."	Piazza S. Giacomo La Marina, 13	Chiesa di Santa Maria La Nova	Gotico,Neogotico,Rinascimentale
38.1129449	13.3597036	Arcidiocesi di Palermo	Chiese	Chiese e Oratori	1344		Piazza Santa Chiara, 11	Chiesa di Santa Chiara	Barocco
38.1137422	13.3556064	Arcidiocesi di Palermo	Palazzi	Palazzi	1450		Via Matteo Bonello, 2	Palazzo Arcivescovile	Rinascimentale
38.1157129	13.3621249	Distretto Culturale di Palermo	Palazzi	Palazzi	1463	"Il palazzo civile pi? rappresentativo della citt?, poich? sede del Comune di Palermo, fu costruito nel 1470 dall'architetto Giacomo Bonfante per volere del pretore Pietro Speciale. Durante i secoli sub? innumerevoli trasformazioni, tra le pi? importanti si ricordano, quella avvenuta nel 1553 quando l'ingresso principale fu spostato dalla piazza Bellini alla piazza Pretoria, e quella avvenuta tra il 1874 e il 1891 ad opera dell'architetto Giuseppe Damiani Almeyda che ha dato l'attuale forma al palazzo. Sulla facciata principale, all'interno di una nicchia, ? posta la statua della Santa patrona di Palermo, S. Rosalia, realizzata da Carlo D'Aprile nel 1661; sul coronamento, sulla facciata ed anche all'interno si trovano numerose aquile di diversa fattura, da qui il nome di ""Palazzo delle Aquile"": l'aquila ? il simbolo della citt? ed ? un retaggio di epoca romana, con il valore di ""potere"". All'interno si possono visitare: la Sala Rossa, ovvero lo studio del Sindaco; la Sala Gialla, dove si riunisce la Giunta Comunale; la Sala delle Lapidi, cos? chiamata per le numerose lapidi che rivestono le sue pareti e che testimoniano importanti fatti ed eventi legati alla storia della citt?, qui si riunisce il Consiglio Comunale."	Piazza Pretoria, 1	Palazzo delle Aquile (o Pretorio)	Neorinascimentale
38.1187504	13.3631188	Associazione Turistico Culturale Itiner'ars	Chiese	Chiese e Oratori	1480		Piazza S. Domenico	Chiesa di San Domenico	Barocco
38.1168692	13.3712693	Associazione Turistico Culturale Itiner'ars	Chiese	Chiese e Oratori	1490	La Chiesa di Santa Maria degli Angeli detta della Gancia risale al 1490, ma, fu radicalmente trasformata nel 1672. In essa ? ancora leggibile lo sviluppo dei paramenti esterni fortemente segnati da una vigorosa fascia ad andamento spezzato che li unifica senza soluzione. Pienamente coerenti con il gusto ancora gotico ispanizzante sono il portale di ingresso al convento ed i due portali dell'edificio ecclesiale: il portale centrale con arco a pieno centro, eseguito nel 1530, ed il laterale ad arco policentrico, inserito in tipiche cornici, concluse in alto con cuspide decorata. La veste decorativa odierna dell'interno ? il frutto di complessi lavori, eseguiti a partire dal XVII secolo, che hanno completamente e pi? volte cambiato l'aspetto della chiesa. ? stata mantenuta la disposizione ad unica navata, con sedici cappelle laterali, cos? come il soffitto a cassettoni del XVI secolo. Vistosa ? la decorazione, caratterizzata dagli stucchi del Serpotta, da pitture e da notevoli affreschi. Il convento, al quale si accede dal portale sul fianco destro della chiesa, ospita l'Archivio di Stato. Sul cortile si apre un grazioso Oratorio le cui pareti e la volta a botte sono state decorate nel XVII secolo con magnifici stucchi dal ricco repertorio di elementi vegetali, figure ad alto rilievo e pitture di buona mano, incorniciate da stucchi dorati.	Via Alloro, 27	Chiesa Santa Maria degli Angeli (detta la Gancia)	Barocco
38.1213946	13.3622687	Fondazione Sicilia	Palazzi	Palazzi	1500		Via Bara All'Olivella, 2	Palazzo Branciforte	Barocco
38.07025	13.21299	"Associazione Culturale ""Progetto Zyz"""	Chiese	Chiese e Oratori	1500		Piazza S. Onofrio, 20	Oratorio di S. Onofrio	Barocco
38.11456	13.37123	Comune di Palermo	Monumenti	Monumenti	1506	"Chiesa in stile tardo gotico: i lavori di costruzione iniziarono nel 1506 nell'antico quartiere della Kalsa, dai padri Olivetani, i quali scelsero il nome ""Spasimo"" in segno di devozione alla Madonna che soffre dinanzi al Cristo in Croce. I lavori di costruzione della chiesa e del convento annesso proseguirono per molti anni, ma non vennero mai completati perch? nel 1536, sotto la minaccia turca, fu disposto il potenziamento del sistema difensivo della citt?, e l'area a ridosso dello Spasimo fu scelta per la realizzazione di un baluardo difensivo. Successivamente, la chiesa divenne luogo di rappresentazioni teatrali, poi di lazzaretto, con il diffondersi della peste nel 1624,magazzino per i cereali e il grano, vista la vicinanza con l'antico porto, ed infine divenne ospedale civico e, dopo, fino al 1986, ospedale geriatrico. L'edificio si presenta con un impianto a tre navate separate da quattro slanciate archeggiature a sesto acuto e ampie cappelle laterali, riproponendo la concezione spaziale dell'architettura gotico-rinascimentale con alte volumetrie, inoltre, vi si possono riscontrare elementi riconducibili allo stile ""chiaramontano"", che esalta la tradizione araba-normanna, con la cupoletta rossa che copre l'avancorpo settentrionale del complesso; allo stile carnelivariano, con il grande arco ribassato; al gotico fiorito con le monofore che danno luce alle cappelle laterali. Appare incerta l'esistenza della copertura della navata centrale, oggi a cielo aperto. Attualmente, lo Spasimo si propone come spazio polifunzionale: mostre, spettacoli ed eventi culturali vi vengono ospitati. Inoltre, la Scuola Internazionale di Jazz del Brass Group ha la sua sede in questo suggestivo monumento."	via dello Spasimo, 35	Spasimo (Chiesa di S. Maria dello Spasimo)	Tardogotico
38.1135965	13.3628185	Arcidiocesi di Palermo	Chiese	Chiese e Oratori	1507	"La chiesa ? annessa al limitrofo convento, edificato nel 1507 sotto il titolo di S. Maria del Popolo da suor Lucrezia Di Leo dell'ordine delle Clarisse, nel luogo che era stato fino al 1492 il ghetto ebraico della citt? e dove esisteva una sinagoga, detta popolarmente ""moschita"". Dopo la soppressione del monastero, nel 1579, la chiesa fu occupata dal Collegio dei Notai. Nel 1596, la chiesa e il convento furono ceduti ai Padri Agostiniani che nel 1609 fecero edificare una nuova e maestosa chiesa. La facciata ? semplice, ma vigorosa, su due ordini, intelaiata da robuste paraste; compiuta nella seconda met? del XVII secolo ? stata ritoccata intorno al 1922. Sul portale principale ? la statua in nicchia di S. Nicol?, collocata nel 1687. La pianta basilicale ha tre navate, divise da poderosi pilastri, con vasto transetto, cappellone rettangolare e profonde cappelle laterali. La chiesa ha subito molti danni lungo i secoli; oggi appare spoglia e, nel nudo involucro murario, meglio si coglie la vastit? degli spazi. Di notevole interesse sono le due tele di Pietro Novelli, visibili sulle cappelle del transetto: ""la Vergine e S. Agostino"" e ""S. Nicol? di Tolentino""; il fonte battesimale del XV secolo su piedistallo seicentesco e l'altare maggiore in marmi mischi del settecento."	Via Maqueda, 159	Chiesa di San Nicolo' da Tolentino	Rinascimentale
38.1137008	13.3628078	Comune di Palermo	Biblioteche	Biblioteche	1507	Ospitato nei locali appartenuti all'ex convento dei Padri Agostiniani Scalzi della chiesa di S. Nicola da Tolentino, edificato nel 1507 ed incamerato dal Comune nel 1866. Nel 1881, l'architetto Giuseppe Damiani Almejda progett? un volume chiuso ed una capiente sala con scaffalature, improntata a criteri razionali e fornita di espedienti tecnologici ripresi dall'architettura industriale del XIX secolo. Il massiccio involucro murario della sala centrale, chiamata con il nome del suo progettista, Sala Almejda, ? risolto con un prospetto che richiama vivacemente lo stile rinascimentale con parte terrana bugnata e aperture superiori dal disegno classicheggiante. L'Archivio conserva i documenti della vita comunale a cominciare dal secolo XIII e comprende: Atti del Senato, Bandi, Provviste, Consigli Civici, Cerimoniali, Maestranze, Raziocini, Ricordi patri etc. Di eccezionale valore storico-documentario ? il Tabulario, raccolta di pergamene che va dai primi del '300 alla met? dell'800, che conserva tra l'altro i Diplomi o Privilegi della citt?. Di notevole interesse, inoltre, sono: l'album con le foto dei Mille di Garibaldi, raccolte da Alessandro Pavia, le stereoscopie di Eugene Sevaistre sulle barricate di Palermo del 1860 e una serie completa di disegni con illustrazioni della Divina Commedia, opera di Francesco Scaramuzza, fotografati da Carlo Saccani.	Via Maqueda, 157	Archivio Storico Comunale	Rinascimentale
38.1190671	13.3692133	Associazione Amici dei Musei Siciliani	Chiese	Chiese e Oratori	1520		Piazzetta delle Dogane	Chiesa di Santa Maria della Catena	Gotico-catalano
38.117665	13.3678464	Arcidiocesi di Palermo	Chiese	Chiese e Oratori	1526	"Costruita a partire dal 1526 nell'area di un magazzino del porto, concesso dal Senato ad una Confraternita, su progetto di Antonello Gagini, il quale si ispir? alle regole architettoniche rinascimentali. La chiesa occupava un'area ben pi? vasta di quella odierna; infatti, in seguito al prolungamento del Cassaro nel 1581, fu demolita la parte absidale. Il prospetto laterale su via Portosalvo, unico lato libero sulla strada, fu costruito secondo il progetto del Gagini, con un disegno intelaiato da paraste e concluso da una classica cornice, in cui sono inserite le gronde. Nella parte alta, la chiesa presenta un campanile a loggetta. Nel tiburio appare una elegante volta stellare costolonata di grande effetto plastico. Oltre ai pregevoli capitelli gaginiani, la chiesa conserva alcune buone opere del XVI secolo come l'""Annunciazione"" di Paolo Fondulli, un Crocifisso ligneo del XV secolo ed un interessante trittico cinquecentesco con Madonna e Santi."	Piazza Marina	Chiesa di Santa Maria di Portosalvo	
38.1159196	13.3713394	Regione Siciliana	Chiese	Chiese e Oratori	1542	"Il magnifico edificio fu costruito nella seconda met? del XVI secolo e definito nel 1686, dopo un rovinoso incendio. Ha paramenti esterni caratterizzati da forti archeggiature, bugnate del primo ordine e decorate nella chiave da mascheroni in pietra; nel secondo ordine paraste fortemente rilevate incorniciano le aperture dalle classiche mostre. Una balconata continua in ferro corre sulla fascia marcapiano. L'edificio incorpora al primo livello l'antica chiesa della Vittoria costruita nel luogo dove esisteva un'antica porta, dalla quale i condottieri normanni penetrarono in citt? nel maggio del 1072. in ricordo di tale evento fu costruita una cappella con l'immagine della Madonna della Vittoria. L'oratorio fu voluto dalla Compagnia del SS. Crocifisso detta dei Bianchi per l'abito di tela bianca che indossavano , la quale si occupava di accompagnare a giusta morte i condannati alla pena capitale. All'interno si possono ammirare gli splendidi stucchi serpottiani; statue tardo barocche e classicheggianti dei secoli XVII e XVIII. Alle spalle della grande aula oratoriale nota come la pi? ampia della citt?, si aprono due sale destinate all'esposizione di manufatti plastici dei secoli XVII e XVIII; a seguire, vi ? il fastoso ""Salone Fumagalli"", in origine destinato alle riunioni dei confrati, interamente affrescato a trompe l'oeil da Gaspare Fumagalli che vi si firma nel 1776."	Piazzetta dei Bianchi	Oratorio dei Bianchi	Barocco
38.117665	13.3678464	Arcidiocesi di Palermo	Chiese	Chiese e Oratori	1545	Costruita nel 1545 nel luogo in cui esisteva, dipinta sul muro, un'immagine della Vergine ritenuta miracolosa. Sebbene l'edificio aderisca al rinnovato paradigma stilistico rinascimentale, ? ancora improntata alla tradizione locale delle chiese trecentesche di derivazione normanna. Ha impianto planimetrico a croce greca iscritta in un quadrato	Piazza Marina	Chiesa di Santa Maria dei Miracoli	
38.121525	13.362245	Associazione Amici dei Musei Siciliani	Chiese	Chiese e Oratori	1546		Piazzetta Angelini, 1	Chiesa Santa Maria del Piliere	Barocco
38.1100882	13.3534911	Associazione Amici dei Musei Siciliani	Chiese	Chiese e Oratori	1557	"Costruito nel 1557 dalla Compagnia di Santa Maria della Consolazione sotto il titolo del Deserto e di San Mercurio, formata da aristocratici, i quali veneravano, in questa cappella, una antica immagine della SS. Vergine, ritrovata in un luogo deserto fuori delle mura della citt?; essi avevano il compito di aiutare gli infermi dell' Ospedale Grande. La sala, preceduta da un'elegante gradinata costruita nel 1719 e da un antioratorio con il pavimento maiolicato e il soffitto affrescato in cui ? rappresentato ""Ges? Cristo che visita San Mercurio in carcere""., ha armoniosa decorazione in stucco attorno alle finestre e nel cappellone, eseguiti da Giacomo Serpotta nel 1678 e la classica disposizione di panche in legno lungo i fianchi. Sulla parete d'ingresso ? disposto il coro con organo in legno laccato e dorato. La volta del presbiterio ? stata decorata con una gloria di puttini a stucco ed affrescata con la ""Gloria di San Mercurio"", mentre sull'altare maggiore campeggia una tela settecentesca che raffigura ""L'Apparizione della Vergine col Bambino a San Mercurio"". Il pavimento maiolicato dell'Aula principale ? stato realizzato tra il 1714 e il 1715 da Sebastiano Gurrello e Maurizio Vagolotta su disegno dell'architetto sacerdote Giulio Di Pasquale."	Piazza della Pinta	Oratorio di San Mercurio	
38.1125847	13.3605768	Associazione Turistico Culturale Itiner'ars	Chiese	Chiese e Oratori	1564		Piazza Casa Professa, 21	Chiesa del Gesù o di Casa Professa	Barocco
38.1184125	13.3630608	Associazione Amici dei Musei Siciliani	Chiese	Chiese e Oratori	1570		Via dell'Immacolatella, 5	Oratorio di San Lorenzo	Barocco
38.119287	13.36412	Centro San Mamiliano	Chiese	Chiese e Oratori	1573		Via dei Bambinai, 2	Oratorio del Santissimo Rosario in San Domenico	Barocco
38.1145461	13.3602612	Associazione Amici dei Musei Siciliani	Palazzi	Palazzi	1576		Piazza Bologni, 18	Palazzo Bologna di Villafranca Alliata	Rinascimentale,Neoclassico,Tardogotico
38.1184857	13.3541904	Arcidiocesi di Palermo	Chiese	Chiese e Oratori	1576		Via Porta Carini, 38	Chiesa dell'Immacolata Concezione al Capo	Barocco
38.1168913	13.3569054	Arcidiocesi di Palermo	Chiese	Chiese e Oratori	1580		Piazza Monte di Piet?	Oratorio di Santo Stefano Protomartire	Barocco
38.1176577	13.3516578	Arcidiocesi di Palermo	Chiese	Chiese e Oratori	1583	"Esistente gi? alla fine del 1200, fu rielaborata nel secolo XVI. Nel 1728 fu rifatta la facciata, secondo il disegno di Andrea Palma. Il vigoroso prospetto, rinserrato tra le cortine edilizie della strada, ? teso tra cornici e lesene che lasciano poco spazio all'intonaco; nel secondo ordine una finestra semicircolare incornicia alcune statue in stucco, tra le quali si trova quella dell'Immacolata. La pianta ? basilicale, ripartita da colonnati ed archi a tutto sesto, con una profonda abside rettangolare, aggiunta nel 1583, che accoglie il coro e l'altare maggiore. Malgrado l'impostazione classica, l'aula risulta appesantita dal rivestimento cromatico dell'interno, eseguito intorno al 1844. La chiesa conserva alcuni dipinti eseguiti da Filippo Randazzo, come per esempio il ""Sacrificio di S. Ippolito"" sull'altare maggiore, e la ""Madonna del Rosario e Santi"" nella prima cappella a sinistra. Sul lato sinistro accanto al presbiterio si apre la vasta sacrestia, con soffitto a padiglione affrescato, in cui si conservano alcuni antichi arredi."	Via Porta Carini, 37	Chiesa di Sant' Ippolito	Barocco
38.120223	13.3618478	Centro San Mamiliano	Chiese	Chiese e Oratori	1586	Costruita nel 1586 su una preesistente chiesa del trecento dedicata alla Santa toscana, S. Zita con annesso ospedale, che divenne convento domenicano intorno al XV secolo. Accanto alla piccola chiesa trecentesca, nel 1458 venne eretta una seconda chiesa	Via Valverde, 1	Chiesa di San Mamiliano (Ex Santa Cita)	
38.1143111	13.3579996	Regione Siciliana	Biblioteche	Biblioteche	1586	"Ospitato nei locali dell'ex Collegio Massimo dei Gesuiti edificato nel 1586 sull'area un tempo occupata da case e palazzi e comprendente l'antica chiesa di S. Pantaleone che venne demolita. La costruzione tardo cinquecentesca si presenta esternamente compatta ed essenziale, come era nel carattere delle costruzioni gesuite, improntate al massimo rigore funzionale. Una austera partitura, ottenuta con lisce fasce e lesene, ordina il paramento murario dove sono ritagliate le asciutte finestre. Al centro ? il portale d'ingresso. I locali interni, trasformati dopo la sistemazione della biblioteca, gravitano attorno ad un arioso cortile porticato con doppio ordine di logge, completato da balaustre in pietra da taglio e da una transenna continua nel piano attico. Inglobata alla biblioteca ? la chiesa di S. Maria della Grotta costruita nel 1615; visibile ancora ? l'articolata facciata arricchita da inserti di pietra da taglio che, nel primo ordine, formano capitelli e cornici; il secondo ordine ? caratterizzato dal grande finestrone, volute e mensole aggettanti. Nel timpano curvilineo ? inserito lo scudo con il simbolo gesuita. Il Collegio fu ampliato e rimodernato pi? volte; furono costruiti grandi saloni al secondo e al terzo piano. Nel 1767 i Gesuiti vennero espulsi dalla Sicilia; parte dell'edificio fu utilizzato per il Collegio ""Real Ferdinando""; nella restante parte venne costituita la Real Accademia di Studi, divenuta nel 1805 Universit? degli Studi e trasferita nell'ex convento dei Padri Teatini. Il primo nucleo della Biblioteca risale al 1778. A sala di lettura venne adattato il salone di rappresentanza, introdotto da un arco e con soffitto a finti cassettoni, sistemata ed arredata con grandi scaffali da Venanzio Marvuglia. Oggi la Biblioteca ? la pi? frequentata della Sicilia e raccoglie pi? di 500.000 volumi."	Via Vittorio Emanuele, 429	Biblioteca Centrale della Regione Siciliana	
38.1202846	13.3621259	Centro San Mamiliano	Chiese	Chiese e Oratori	1590	"Costruito nel 1590 dalla Compagnia del Rosario costituitasi nel 1570. Dalla loggia superiore, ornata con busti in marmo, si passa, attraverso un portale in pietra, alla sala che funge da vestibolo; questa ? ornata con i ritratti dei Superiori della Compagnia. La semplice aula rettangolare con piccola tribuna ? stata decorata dalla mano magistrale di Giacomo Serpotta che vi lavor? dal 1687 al 1718. Le due porte di ingresso hanno portali sostenuti da coppie di atlanti; nella parte superiore della parete d'ingresso sono inseriti tra panneggi, volute, elementi vegetali e puttini, sei rilievi di grande vigore prospettico; tra questi spicca la scena della ""Battaglia di Lepanto"" posta al centro ed eseguita con grande dovizia di particolari. Ma l'intero paramento murario partecipa intensamente alla decorazione scultorea, resa con vividi effetti di realismo decorativo e tutto l'insieme partecipa all'esplosione barocca che qui trova il suo acme: le finestre hanno plastiche mostre architettoniche; sui timpani, sulle mensole e sui drappeggi sono putti e statue; elementi naturalistici e festoni si fondono in un insieme armonioso. Sotto ogni finestra sono posti dei quadri scultorei con i ""Misteri del Rosario"". Alle pareti sono i sedili dei confrati in legno intarsiato ed il pavimento ? in marmo policromo a disegni. Sull'altare ? la tela della ""Madonna del Rosario"" di Carlo Maratta del 1695; ai lati sono due cantorie settecentesche. Oltre alla sala dell'oratorio sullo stesso piano sono i locali della canonica e la piccola cappella del Crocifisso, detta ""Oratorio sopra S. Cita"", dove nei primissimi anni del XVIII secolo Filippo Tancredi dipinse nella volta l'""Adorazione dell'Agnello mistico""."	Via Valverde, 3	Oratorio di Santa Cita	Barocco
38.1153903	13.36774	Arcidiocesi di Palermo	Chiese	Chiese e Oratori	1596		Piazzetta Chiesa Cocchieri, 1	Chiesa della Madonna dell'Itria ai Cocchieri	Rinascimentale
38.1168703	13.3606789	"Associazione Culturale ""Progetto Zyz"""	Chiese	Chiese e Oratori	1601	"Rappresenta il primo edificio costruito lungo la via Maqueda; l'inizio della costruzione risale infatti al 1601, anno della realizzazione della strada. Le vicende costruttive della chiesa e dell'adiacente Casa Professa dell'Ordine dei Chierici Regolari ministri degli infermi, detti Padri Crociferi, furono lente e dovettero interrompersi bruscamente nel secolo seguente. La chiesa fu aperta al pubblico nel 1660. La facciata ? in pietra d'Aspra e fu progettata dall'architetto Ferdinando Lombardo, che si avvalse dell'aiuto del giovane Giuseppe Venanzio Marvuglia: ? scandita da lisce membrature entro le quali s'inquadrano alcuni ottimi rilievi in stucco. L'interno ? ad unica navata; ha profonde cappelle laterali, collegate da una galleria. Due cappelloni uguali formano i bracci della croce, oltre i quali si sviluppa la tribuna rettangolare. Una cupola era prevista all'incrocio dei due bracci; al suo posto venne realizzata nel XIX secolo una prospettiva fittizia. Di particolare valore, sono le tre opere realizzate da Guglielmo Borremans, conservate in una delle cappelle laterali, del 1734: ""Transito di S. Giuseppe""; ""S. Giuseppe e Ges?"" e la ""Sacra Famiglia"". La tribuna fu costruita tra il 1624 ed il 1649; la decorazione a fresco della volta col ""Trionfo della Croce"", i due medaglioni con S. Pietro e S. Andrea ed i quattro Dottori della Chiesa sono opera di Gioacchino Martorana. Dopo l'andito d'ingresso al convento ? la cappella del Crocifisso che accoglie, ai piedi della Croce un pregevole gruppo scultoreo di Giacomo Serpotta: l'Addolorata, la Maddalena e S. Giovanni, a figura intera, rappresentati in atteggiamenti intensamente dolorosi e con ricchezza di movenze e di effetti plastici. La Casa Professa adiacente fu costruita nella prima met? del '600 e, lungo i secoli ha avuto una storia tormentata. Nel 1866 ? passata al pubblico Demanio che l'ha adibita a sede di uffici pubblici. Attualmente ? in parte occupata dalla Scuola Superiore di Economia e Finanza ""E. Vanoni"" ed in parte adibita a canonica."	Via Maqueda, 220	Chiesa di Santa Ninfa dei Crociferi	Tardorinascimentale
38.1191886	13.3698605	Regione Siciliana	Biblioteche	Biblioteche	1602	Ospitato nell'ex convento dei Padri Teatini, situato accanto alla chiesa di Santa Maria della Catena, costruito nel 1602. L'edificio conventuale fu utilizzato dal 1812 come ospedale per le truppe britanniche	Via Vittorio Emanuele, 31	Archivio di Stato	
38.1109658	13.3611736	Arcidiocesi di Palermo	Chiese	Chiese e Oratori	1605	"Fondato nel 1605 e decorato, tra la fine del XVI secolo e gli inizi del seguente, interamente con stucchi. Di grossolana fattura sono quelli del presbiterio e delle pareti lunghe con figure di santi e sante carmelitane; gli altri della parete dell'ingresso sono di buona mano e comprendono due figure allegoriche muliebri e, in due tondi sorretti da angeli, due episodi evangelici: ""Il Riposo in Egitto"" e ""La Nativit?"" di scuola serpottiana. La pianta dell'oratorio ? a croce latina. Nel presbiterio, decorato con stucchi dorati, ? posto l'altare marmoreo, sotto un'edicola con colonne tortili che culmina con l'insegna dei carmelitani. Ai lati dell'arco trionfale sono poste due statue della Castit? e del Divino Amore. Lungo le pareti laterali si trovano due altari lignei. Nel pavimento vi ? l'accesso alla cripta a tre livelli che consta di una sala con 34 loculi decorati con piastrelle maiolicate. Vi sono anche pitture parietali a motivi floreali e lo stemma dei carmelitani dipinto sulla volta. A questa sala ? collegato il colatoio dove avveniva l'essicazione dei cadaveri."	Via Porta Sant' Agata, 5	Oratorio del Carminello	
38.1166314	13.3531771	Arcidiocesi di Palermo	Chiese	Chiese e Oratori	1607	"Costruita nel 1607 su progetto dell'architetto messinese Natale Masuccio (attivo nel cantiere della chiesa del Ges? ""Casa Professa""), quale cappella della Casa Conventuale del Noviziato dei Gesuiti, distrutto nel 1848. La facciata del '700 ? divisa in due ordini sormontati da un frontone; ai lati della finestra posta nell'ordine centrale si trovano le sculture che riproducono due Santi e sul portone ? collocato il medaglione scolpito da Giacomo Pennino raffigurante San Stanislao. L'interno ? ad un'unica navata e conserva una splendida decorazione, eseguita nella seconda met? del XVIII sec. Ricca di stucchi e marmi mischi, secondo una sensibilit? rococ?; pregevoli sono gli affreschi realizzati da illustri artisti del '700 che avvolgono, in pi? parti, la chiesa. Sempre al suo interno ? possibile ammirare una statua del Santo a cui ? dedicata, Stanislao, gesuita di nazionalit? polacca; la statua di marmo presenta il corpo del Santo giacente. La chiesa ? altres? intitolata alla Madonna del Lume in quanto ? presente il simulacro della Vergine, realizzato prendendo spunto da un piccolo quadro ovale, dipinto da ignoto, ritenuto miracoloso."	Via del Noviziato, 1	Chiesa di San Stanislao Kostka	Barocco
38.1190391	13.361894	Città Metropolitana di Palermo	Monumenti	Monumenti	1608		Via Vittorio Emanuele, 25	Loggiato di San Bartolomeo	
38.1497629	13.3619686	Arcidiocesi di Palermo	Chiese	Chiese e Oratori	1625		via Pietro Bonanno	Santuario Santa Rosalia	
38.1100902	13.3520862	Arcidiocesi di Palermo	Chiese	Chiese e Oratori	1625	"Le origini della chiesa, oggi Santuario, sono antichissime: nel 1064, i soldati normanni che assediavano Palermo, accampati nelle vicinanze della citt? ebbero grosse difficolt? perch? assaliti da ragni velenosi; tale contrattempo li costrinse a trasferirsi in un luogo pi? vicino a Palermo, che a quel tempo era sotto il dominio dei Saraceni che la governavano da due secoli. In questa nefasta difficile circostanza i principi normanni rivolsero una preghiera alla Vergine affinch? li aiutasse a superare le difficolt? del problema. Secondo la tradizione la Vergine apparve ai normanni e li esort? ad accendere del fuoco che servisse ad uccidere i pericolosi ragni. La soluzione suggerita dalla Santa Vergine ebbe esito positivo cos? come il risultato dell'assedio. Allorch? l'8/1/1072 Re Ruggero II, conte di Sicilia, entr? a Palermo, si ricord? del rimedio prodigioso accaduto per l'intercessione della Vergine e per ringraziamento volle edificare nello stesso luogo dove erano stati accesi i fuochi, una chiesetta chiamata ""S. Maria dei Rimedi"". Nel 1610 la chiesetta venne donata ai Carmelitani, i quali decisero di costruirne una pi? grande, grazie anche all'intercessione del vicer? spagnolo Vigliena. L'edificio fu completato nel 1625 e restaurato nella prima met? del XIX secolo. La chiesa ha una sola navata con cappelle e profondo transetto. Sugli altari principali vi sono buone tele del '700, in particolare si ricordano: nel cappellone minore, ""S. Teresa"" di Rosalia Novelli, figlia del noto Pietro Novelli; in sagrestia: un ""San Bartolomeo"", copia dello Spagnoletto; nella terza cappella di destra ""La Madonna con Ges?, S. Anna e Gioacchino"" di Pietro Novelli; nella prima cappella a sinistra ""Sacra famiglia"" sempre del Novelli."	Piazza Indipendenza, 9	Chiesa della Madonna dei Rimedi dei Carmelitani Scalzi	Barocco
38.1184125	13.3630608	Arcidiocesi di Palermo	Chiese	Chiese e Oratori	1630	Fu costruita nel XV secolo per volere della comunit? di mercanti catalani stabilitisi a Palermo intorno al XIII secolo. Il complesso ? composto, oltre che dalla chiesa,anche da una serie di edifici, i quali hanno subito diverse trasformazioni, durante i secoli. Il complesso ? di propriet? dello Stato spagnolo ed ? diventata la sede del centro di cultura spagnola. Sulla strada si affaccia solo il fronte d'ingresso, costruito nel tardo '500 secondo lo stile plateresco, importato dalla Spagna. Si tratta di un'articolata facciata, intelaiata da colonne e trabeazioni, disposta su tre ordini	Via Argenteria Nuova, 33	Chiesa di Sant'Eulalia dei Catalani	
38.114542	13.364133	"Associazione Culturale ""Progetto Zyz"""	Chiese	Chiese e Oratori	1630		Via Giovanni da Procida, 23	Chiesa di S. Maria degli Agonizzanti	Barocco
38.1202836	13.3641289	Centro San Mamiliano	Chiese	Chiese e Oratori	1633		Largo Cavalieri di Malta	Chiesa di Santa Maria in Valverde	Barocco
38.1163377	13.3629899	"Associazione Culturale ""Progetto Zyz"""	Chiese	Chiese e Oratori	1633	"Una chiesa dedicata allo stesso Santo esisteva nel XII secolo di fronte all'attuale; essa ospit? il primo nucleo di frati Domenicani, appena giunti a Palermo e fu poi inglobata nelle strutture trecentesche del monastero di S. Caterina. L'edificio attuale fu costruito tra il 1634 e il 1647 e fu affidato alla Confraternita dei Miseremini, la quale si occupava di celebrare messe in suffragio dei penitenti del Purgatorio. Di notevole interesse ? la facciata barocca eseguita da Carlo D'Aprile e Gaspare Guercio nel 1660, la quale ? arricchita da colonne, cornici, volute e nicchie e da vari lavori d'intaglio, il tutto sormontato da un campanile centrale a tre luci. L'interno ? a pianta basilicale a tre navate, transetto e cappellone rettangolare; ornata da rivestimenti parietali in marmo, decorazioni pittoriche e a stucco ed affreschi, tra i quali non si possono non menzionare quelli realizzati da Vito D'Anna, per la volta con ""l'Apoteosi dei santi Matteo e Mattia"" e ""Le anime liberate dal Purgatorio"" e, nella cupola ""Trionfo della Vergine"", che ne fanno un tempio prettamente barocco. Nel 1729 Giacomo Serpotta esegu? gli stucchi che ornano la chiesa; mentre gli stucchi dorati ed i medaglioni tra gli archi sono di Bartolomeo Sanseverino. Ogni anno, per il Venerd? Santo, la Chiesa di San Matteo ? teatro di un'antichissima e suggestiva processione dei simulacri del Cristo Morto e della Vergine Addolorata."	Via Vittorio Emanuele, 247	Chiesa di San Matteo	Barocco
38.1165646	13.3725477	Comune di Palermo	Chiese	Chiese e Oratori	1662	La chiesa, con l'annesso convento, fu edificata nel 1686 da Giacomo Amato, per i Padri Crociferi, ed ? disposta su un lotto stretto e lungo. Il fronte principale, scandito da un'ordinata partitura di paraste e lesene, ? sul cortile perpendicolare alla strada	Via Torremuzza	Chiesa di San Mattia dei Crociferi	Barocco
38.1172428	13.3720626	Arcidiocesi di Palermo	Chiese	Chiese e Oratori	1678		Via Torremuzza, 1	Chiesa di Santa Maria della Pietà	Barocco
38.114894	13.3591001	Arcidiocesi di Palermo	Chiese	Chiese e Oratori	1682	"Costruita a partire dal 1682 su progetto di Paolo Amato, il quale adott?, per la planimetria della chiesa, la pianta ellittica, coperta da cupola di notevoli dimensioni e predispose un nutrito apparato decorativo volto a stupire lo spettatore. Il prospetto principale ha linee nette e severe; nel primo ordine si alternano finestre e nicchie, contornate da complesse cornici in pietra; nel secondo ordine ? un'elegante loggetta a tre archi, conclusa da un monumentale timpano semicircolare. Nel 1763 la maestosa cupola fu coperta, verso l'esterno, da un loggiato, per proteggere la volta dalle infiltrazioni dell'acqua piovana. Si accede all'interno per mezzo di una gradinata in marmo dove ai lati sono collocati affreschi eseguiti da Vito D'Anna intorno al 1763: ""Il Miracolo di S. Basilio"" e ""Predica di S. Basilio"". Nell'ampio spazio della sala si aprono due profonde cappelle ed il cappellone rettangolare, diametralmente opposto all'ingresso. Della fastosa decorazione barocca rimangono parte degli stucchi delle paraste, quelli che contornavano gli altari e le quattro cantorie ed il bellissimo fregio sopra il coro con un grande angelo in stucco. Sul fianco destro ? un magnifico Crocifisso ligneo, su un sipario in marmo mischio, con le statue di S. Michele Arcangelo, S. Gaetano e Maria Maddalena. La chiesa viene utilizzata frequentemente come auditorium."	Via Vittorio Emanuele, 395	Oratorio del SS. Salvatore	Barocco
38.128591	13.3463213	Comune di Palermo	Biblioteche	Biblioteche	1700		Via Salinas, 3	Biblioteca Comunale Villa Trabia	Neoclassico
38.130416	13.346716	Comune di Palermo	Dimore	Dimore e Ville Storiche	1700	Villa Trabia, ovvero Casena dei Trabia alle Terre Rosse, fu costruita nel Settecento, da Ignazio Lucchesi Palli, Principe di Campofranco. Nel 1814 Giuseppe Lanza Branciforti, Principe di Trabia e Butera acquist? la Casena ed il giardino. La villa include un piccolo parco seicentesco ed un edificio settecentesco. L'edificio di stile classico ? composto da un grosso corpo centrale su due livelli e da due ali laterali, che racchiudono una piccola corte, al centro della quale si trova l'ingresso. Nel giardino, d'impianto simile ad un orto botanico si trovano robinie, araucarie, oleandri, conifere, palme, ficus magnolioides e querce, per un totale nel 1910 di 2.790 specie di piante (oggi circa 150 specie).	Via Antonio Salinas, 3	Villa Trabia	Neoclassico
38.1352827	13.3485344	Fondazione Sicilia	Musei	Gallerie d'Arte e Musei	1700	"Edificata nel XVIII secolo da Gaspare Scichili, successivamente pass? ai principi di Carini. Trasformata nel 1891 secondo un classicheggiante stile neo-cinquecentesco, venne ulteriormente ammodernata nel 1906 quando pass? a Francesco Zito. Il prospetto fu rifatto con corsi bugnati, aperture sottolineate da decorazioni ad edicola e terrazze laterali. La villa, acquistata qualche anno dopo dal Banco di Sicilia, ? oggi di propriet? della Fondazione Sicilia e sede della Fondazione ""Lauro Chiazzese"" per l'Arte e la Cultura ed ospita una ricca biblioteca, mentre le collezioni di archeologia, di ceramica, di numismatica, di filatelia e di dipinti dell'ottocento italiano sono stati trasferiti a Palazzo Branciforte. Dal 20 giugno 2015 ? stata inaugurata la Pinacoteca che espone opere d'arte di instimabile valore dal '600 all'800, realizzate da autori di una certa caratura: da Salvator Rosa a Mattia Preti, da Renato Guttuso a Mario Schifano passando per Michele Catti, Francesco Lo Jacono, Mario Sironi, Filippo De Pisis, Carlo Carr? etc. La Pinacoteca si estende per un'area di mille metri quadrati, su tre piani, pi? una sala multimediale."	Via Libert?, 52	Villa Zito	
38.1202549	13.3605392	Ordine del Santo Sepolcro di Gerusalemme	Chiese	Chiese e Oratori	1726		Via Monteleone, 50	Oratorio di Santa Caterina d'Alessandria	Barocco
38.1096198	13.3463727	Regione Siciliana	Musei	Gallerie d'Arte e Musei	1733	Fondato nel 1733, sotto il regno di Carlo III di Borbone, con lo scopo di accogliere i poveri inabili, storpi e le giovani vagabonde ed orfane. Progettato dall'architetto Orazio Furetto, i lavori iniziarono nel 1746 e solo nel 1772 fu completato dagli architetti Venanzio Marvuglia e Nicolo Di Puglia. In occasione dell'inaugurazione, avvenuta l'8 agosto del 1772. tutti i nobili, il clero, le autorit?, in processione accompagnarono nell'edificio, un gruppo di derelitti, poveri, anziani, donne e bambini per dimostrare la grande generosit? del Re e dei nobili. Nel progetto iniziale l'edificio rispecchiava lo stile architettonico del tardo Barocco, ma dato che i lavori si protrassero per molti anni, lo stile Barocco sub? l'influenza dello stile Neoclassico che, nel frattempo, era arrivato a Palermo, Anche la Chiesa, posta al centro dell'edificio, che doveva essere a pianto ottagonale, fu trasformata in pianta rettangolare e risent?, sia all'esterno che all'interno, dello stile Neoclassico che presenta linee pi? sobrie e ornamenti pi? semplici. Anche il maestoso prospetto dell'edificio ? la sintesi dei due stili che in Sicilia si fusero e si trasformarono, grazie alla fantasia e alla personalit? di architetti e maestranze molto vivaci e originali. Nell'edificio furono impiantate fabbriche e laboratori di seta e pasta, che diedero lavoro ai giovani ricoverati ridando ad essi quella dignit? e quel benessere che solo il lavoro pu? dare	Corso Calatafimi, 217	Albergo delle Povere	
38.1197079	13.3601774	Arcidiocesi di Palermo	Chiese	Chiese e Oratori	1735	"La chiesa, annessa al collegio di S. Maria all'Olivella, fu costruita nel 1735 su progetto di Nicol? Palma, che si ispir? alle migliori realizzazioni barocche cittadine, rispettando la proporzione dei canoni classici. Il prospetto ha partito unico, seppure diviso da paraste, e timpano curvilineo sotto cui ? posto un medaglione in stucco con S. Gioacchino, realizzato da Francesco Alajmo nel 1744. L'interno ? un grande ambiente rettangolare su cui si aprono quattro cappelle semicircolari. Tutta la chiesa ? avvolta da un manto candido con eleganti stucchi che formano festoni e visi di angeli. Nel vestibolo ? un fine rilievo in stucco con la ""Fuga in Egitto""; due colonne sorreggono il coro ed introducono la navata: nella parete destra sono l'altare del Rosario e l'altare dell'Immacolata con due tele settecentesche, attribuite a Filippo Randazzo; nella parete di sinistra si apre la cappella dell'Arcangelo Raffaele, con dipinto eseguito nel 1750 da Pietro Martorana. Una transenna in marmi mischi separa la tribuna, dove ? l'altare del 1770. le due statue, S. Gregorio e S. Filippo, poste lateralmente, sono opera di Procopio Serpotta, autore di tutta la decorazione in stucco della tribuna."	Via Patania	Chiesa di San Gioacchino (al Collegio Maria all'Olivella)	Barocco
38.1226102	13.3640594	Centro San Mamiliano	Chiese	Chiese e Oratori	1735		Piazza San Giorgio dei Genovesi	Chiesa di San Giorgio dei Genovesi	Rinascimentale
38.1127839	13.360766	Comune di Palermo	Biblioteche	Biblioteche	1760		Piazza Casa Professa, 1	Biblioteca Comunale	Neoclassico
38.1193334	13.3622343	Arcidiocesi di Palermo	Chiese	Chiese e Oratori	1769		Via Roma 320 / A	Oratorio di San Filippo Neri	Barocco
38.1151775	13.3600792	Regione Siciliana	Palazzi	Palazzi	1784	"L'area su cui sorse il palazzo era occupata fin dal XVI secolo da palazzo Afflitto, il quale fu acquistato da Giuseppe Emanuele Ventimiglia e Cottone, principe di Belmonte, che lo fece riedificare completamente da Giuseppe Venanzio Marvuglia a partire dal 1780. passato ai principi di Pandolfina e nel 1841 a Giovanni Riso, divenne nel 1935 ""Casa del Fascio""; centrato dai bombardamenti del 1943 fu abbandonato ai vandali che asportarono quanto non distrutto dalle bombe. Il prospetto ? l'unica struttura rimasta integra ed ? caratterizzato dalla presenza di lesene ornate da capitelli; da un portale d'ingresso affiancato da colonne e da una lunga balconata, corrispondente al piano nobile. Dopo un attento restauro, dal 2005 ? divenuto sede del Museo d'Arte Contemporanea della Sicilia; il cui percorso espositivo, curato da Francesco Andolina, parte da una prima tranche di opere che coprono circa sessant'anni di storia, dai siciliani Carla Accardi, Pietro Consagra, Salvo, Antonio Sanfilippo ed Emilio Isgro', fino a Croce Taravella, Alessandro Bazan, Laboratorio Saccardi, con un'incursione autorizzata di chi ha lavorato in Sicilia, Jannis Kounellis, Richard Long, Christian Boltanski. Oltre alla colleazione permanente, il museo ospita, anche delle mostre temporanee."	Via Vittorio Emanuele, 365	Palazzo Belmonte Riso	Barocco
38.1681297	13.3289359	Regione Siciliana	Palazzi	Palazzi	1799	"Situata all'interno del parco della Favorita, fu fatta costruire dal re Ferdinando III di Borbone nel 1799 come sua residenza, in stile orientale, come era di moda in quel periodo, dall'architetto Venanzio Marvuglia; rappresenta un documento unico di incontro tra il neoclassicismo e il romantico richiamo dell'oriente nella storia dell'architettura palermitana. L'edificio, su tre elevazioni, ha forma quadrata; il corpo centrale termina in alto con un tetto a pagoda, sorretto da un tamburo ottagonale. Al piano terreno si trovano porticati ad arco ogivali e nei due fianchi ci sono torrette con scale elicoidali a giorno, opera di Giuseppe Patricolo. La costruzione presenta curiosi elementi: i campanelli della grata di ingresso, le travi in legno intagliato delle terrazze e gli smerli. Gli appartamenti sono distribuiti su tre piani. Nel seminterrato si trovano la sala da ballo e la saletta delle udienze decorate tutte da Velasquez. Si sale al primo piano con una scala esterna, l? si trovano il salone dei ricevimenti in stile cinese con pannelli in stoffa dipinti anche dal Riolo, la sala da pranzo con l'ingegnosa ""tavola matematica"" del Marvuglia e la camera da letto del Re con la volta dipinta in stile cinese. Al secondo piano si trovava l'appartamento della Regina Maria Carolina con due salette di ricevimento e la camera da letto con lo spogliatoio. All'ultimo livello si trova una grande terrazza di forma ottagonale coperta a pagoda con soffitto decorato."	Via Duca degli Abruzzi, 1	Palazzina Cinese	Cinese-neoclassico
38.117455	13.372978	Comune di Palermo	Monumenti	Monumenti	1846		Foro Italico Umberto I	Palchetto della Musica (Foro Italico)	Neoclassico
38.117887	13.368154	Distretto Culturale di Palermo	Spazi Verdi	Giardini Pubblici e Spazi Verdi	1863	Realizzata su progetto di Giovan Battista Filippo Basile nel 1863, al centro della piazza Marina, fu intitolata all'eroe nazionale Giuseppe Garibaldi proprio per celebrare la recentissima nascita della nazione Italiana.. Il giardino ha un perimetro quadrangolare, con le entrate in corrispondenza delle strade principali ed ? recintata da una cancellata in ghisa, realizzata dalla Fonderia Oretea su disegno dello stesso Basile, il quale si ispir? ad un bosco artificiale che era stato approntato nel 1538, nella piazza, per lo svolgimento di una caccia. Tra le tante piante esotiche che si trovano all'interno il ficus Magnoloides ? sicuramente l'attrazione principale essendo considerato uno dei pi? vecchi e grandi d'Italia, con un'altezza di 30 metri, una circonferenza del tronco che supera i 21 metri ed una chioma con diametro di 50 metri.. Appartiene alla specie dei Ficus macrophylla, come un esemplare presente nell'orto botanico di Palermo, di cui costituisce il simbolo. Nella villa troviamo busti scultorei tra i quali appunto quello di Giuseppe Garibaldi, Rosolino Pilo, Giovanni Corrao, Raffaele De Benedetto, Luigi Tukory e Nicola B&#259	Piazza Marina	Villa Garibaldi	
38.124311	13.354644 	Comune di Palermo	Monumenti	Monumenti	1875		Piazza Castelnuovo	Palchetto della Musica (Politeama)	Neoclassico
38.1229768	13.360095	Arcidiocesi di Palermo	Chiese	Chiese e Oratori	1879	La facciata del tempio in conci di tufo presenta pregevoli decorazioni neogotiche ed una fascia di chiusura, che la percorre in tutta la sua lunghezza, con i nomi dei due Santi titolari ed il 1879 quale anno di costruzione. In alto, ? posta una bifora dalle linee raffinate. Il portale d'accesso, dai richiami gotici, presenta, al suo culmine lo stemma con i simboli di Pietro (chiavi e tiara) e di Paolo (spada). L'edificio ? affiancato da un campanile ottagonale dai raffinati ricami gotici lungo la fascia di coronamento. L'interno ? a tre navate , divise da dodici colonne che sostengono archi a sesto acuto	Via Bentivegna, 62/b	Chiesa dei Santi Pietro e Paolo	
38.1086579	13.3807273	Comune di Palermo	Musei	Gallerie d'Arte e Musei	1886	"L'Ex deposito delle locomotive di S. Erasmo fu inaugurato nel 1886 ed ? costituito da un elegante padiglione con una particolarissima e preziosa struttura in ghisa coperta da un tetto a quattro falde con lucernai. La superficie complessiva ? di 1400 mq coperti pi? spazi esterni che si affacciano sulla foce del Fiume Oreto e sul mare. L'ex deposito locomotive appartiene ed ? stato restaurato dal Comune di Palermo nel 2004. Dal 2014, l'ex deposito ? sede dell'Ecomuseo, il quale racconta Storie di mare, citt? e comunit? e ha disposizione spazi interni ed esterni per laboratori, incontri e conferenze. Lo spazio ? gestito dal Comune, attraverso un organo di coordinamento di cui fa parte anche l'associazione CLAC che rimane responsabile dell'allestimento e delle visite guidate. Negli spazi del museo sono presenti diverse installazioni video, audio, fotografiche, sonore, accompagnate da testi e parole raccontano al visitatore ""il patto"" ancora possibile tra i palermitani e il proprio mare. E' un racconto corale fatto da decine e decine di testimonianze, storie biografiche, pezzi di storia della citt?, storie dei luoghi."	Via Messina Marine, 32	Eco Museo Urbano (Ex Deposito Locomotive S. Erasmo)	
38.1240725	13.3517029	Distretto Culturale di Palermo	Palazzi	Palazzi	1895		Via Dante, 53	Palazzo Ziino	Neoclassico
38.1667101	13.3287389	Comune di Palermo	Musei	Gallerie d'Arte e Musei	1909	"Venne fondato nel 1909 da Giuseppe Pitr?, folclorista e studioso di costumi e tradizioni popolari, che, in molti anni di appassionata ricerca, raccolse quel materiale che oggi costituisce il nucleo centrale del Museo. Inizialmente sistemato in un ex convento del centro storico di Palermo, dal 1934 fu trasferito nella d?pendance della Palazzina Cinese. Il Museo conserva circa 4000 oggetti, tra costumi, pupi, carretti, presepi, ceramiche, stampe popolari religiose, ex voto, pitture su vetro, che testimoniano la vita e la cultura popolare della Sicilia. Gli oggetti che compongono la ricca collezione sono ordinati nei locali destinati in origine alla servit? della Palazzina Cinese, distribuiti attorno ad un cortile a croce. Di notevole interesse ? la ""sala delle carrozze"" dove si possono ammirare due splendide carrozze appartenute al Senato palermitano; la ""sala Restivo"" che ospita carretti siciliani e la sala dedicata ad antichi presepi; raccolta di alcuni archetipi di costruzioni, che illustrano, attraverso le varie dominazioni cui ? stata sottoposta la Sicilia, l'evolversi delle abitazioni, dal pagliaio alla dimora recente etc. A sinistra dell'ingresso del Museo ? posta la Cappella realizzata intorno al 1804, di perimetro quadrato all'esterno, mentre l'interno ? a pianta circolare con fascia anulare, presenta otto colonne con nicchie e passetti e cupola. Tramite una galleria si entra al piano superiore dove la famiglia reale poteva assistere al rito religioso."	Via Duca degli Abruzzi,1	"Museo Etnografico ""G. Pitrè"""	
38.1413765	13.3360137	Comune di Palermo	Spazi Verdi	Giardini Pubblici e Spazi Verdi	2010	La villa comunale Costa Terrasi ? stata inaugurata nel 2010 ed ? stata intitolata al Magistrato Gaetano Costa, assassinato dalla mafia il 6 agosto del 1980. All'interno dei locali della villa ? stata collocato il Caf? letterario Costes, il quale offre un ricco programma di attivit? ludico-educative per bambini, per imparare a giocare con l'Arte, usare le mani, la creativit? e la fantasia, ed inoltre la Biblioteca Comunale ha realizzato una sua postazione, in un'area di 50 mq delimitato da 6 vetrine a scaffale modulari mobili che comprendono la sala lettura e la postazione front-office.	Viale Lazio	Villa Terrasi	
38.1435222	13.3399722	Comune di Palermo	Biblioteche	Biblioteche	2010	la Biblioteca Comunale di Palermo ha realizzato, all'interno della villa comunale Villa Costa Terrasi, una sua postazione, in un'area di 50 mq che comprende la sala lettura e la postazione front-office. La Villa ? stata inaugurata nel 2010 ed ? stata intitolata al Magistrato Gaetano Costa, assassinato dalla mafia il 6 agosto del 1980. All'interno dei locali della villa ? stata collocato il Caf? letterario Costes.	Viale Lazio 5	Biblioteca Comunale Verde Terrasi	
38.1090428	13.3594834	Comune di Palermo	Spazi Verdi	Giardini Pubblici e Spazi Verdi	2011		Via Agostino Catalano, 4 	Parco Ninni Cassarà	Contemporaneo
38.1117578	13.3597192	Arcidiocesi di Palermo	Chiese	Chiese e Oratori	?1200	Chiesa antichissima, esistente dal XIII secolo. La sua conformazione attuale ? riferibile sia al rifacimento settecentesco che ha nascosto la struttura a colonne ed archi ogivali, sia ai successivi aggiustamenti ottocenteschi. La pianta ? basilicale a tre navate separate da pilastri ed ? interamente intonacata. All'incrocio tra navata e transetto ? la cupola schiacciata e dipinta internamente a finti cassettoni. L'altare a sinistra del transetto ? dedicato a S. Nicol?, quello di destra conserva un Crocifisso settecentesco	Via Nunzio Nasi, 18	Chiesa di San Nicolo' di Bari (all'Albergheria)	
38.1169529	13.3687926	Distretto Culturale di Palermo	Palazzi	Palazzi	?1500	Appartenuto ai Galletti e La Grua, principi di Fiumesalato. Il palazzo risale al XVI secolo, ma venne restaurato in un ibrido stile neogotico nel 1866 dall'architetto Tommaso Di Chiara che vi profuse l'intero repertorio dei possibili riferimenti stilistici come la torre merlata e i lavori a traforo delle aperture. La parte pi? interna dell'edificio conserva importanti vestigia del XVI secolo: nel vicolo della Neve ? un portale ad arco policentrico con cornice	Piazza Marina, 46	Palazzo Galletti di S. Cataldo	
38.1056671	13.3344503	Regione Siciliana	Spazi Verdi	Giardini Pubblici e Spazi Verdi	?1500	"Sorta nel '500 come trasformazione per uso agricolo della Torre Alfaina o Cuba soprana, l'antico padiglione del parco reale normanno, venne ristrutturata nel XVII secolo quando era di propriet? dei Rao, quindi nel '700 quando pass? al giurista Carlo Napoli. Il prospetto meridionale possiede caratteri tipici delle costruzioni villerecce settecentesche, di forma rettangolare, con ampio e scenografico scalone esterno a doppia rampa, tuttavia mantiene portali e loggette cinquecentesche. Le strutture del padiglione normanno sono visibili sul fianco orientale dove sono intuibili le originali aperture ogivali. Del parco della villa fa parte il piccolo chiosco detto ""Cubola"" che originariamente doveva trovarsi al centro di una peschiera."	Via Francesco Speciale	Giardino di Villa Napoli	
38.112283	13.3636649	Citt? Metropolitana di Palermo	Palazzi	Palazzi	?1600	L'edificio appartenuto fin dal XVII secolo ai Celestri marchesi di S. Croce, fu ammodernato ed abbellito nel 1770 da Tommaso Grimaldi e Celestri che ne fece una dimora principesca	Via Maqueda, 83	Palazzo Sant'Elia (Palazzo Celestri di Santa Croce)	Barocco
38.1613916	13.3253326	Comune di Palermo	Spazi Verdi	Giardini Pubblici e Spazi Verdi	?1700		Via dei Quartieri, 2	Parco di Villa Niscemi	
38.164296	13.332514	Comune di Palermo	Dimore	Dimore e Ville Storiche	?1700		Piazza Niscemi	Villa Niscemi	
38.142124	13.3359195	Comune di Palermo	Spazi Verdi	Giardini Pubblici e Spazi Verdi	?1950	La citt? dei Ragazzi ? un'area dedicata allo svago e alla cultura dei bambini e dei ragazzi, situata all'interno del Parco della Favorita, confinante con la Palazzina Cinese. Nato negli anni '50 del secolo scorso e, dopo diversi anni di chiusura, ? stato riaperta il 18 luglio del 1997. Tante le deliziose strutture all'interno: il castello in mattoni con vasta platea, il palcoscenico all'aperto, l'ingrottato monumentale (opera ottocentesca di Venanzio Marvuglia), il canale navigabile con imbarcadero, la stazione ferroviaria con i binari e i passaggi a livello, il palco della musica, i ponticelli, il ponte levatoio	Viale degli Abruzzi, 1	Città dei Ragazzi	
38.1081386	13.3425586	Regione Siciliana	Archeologico	Zone Archeologiche	?600	Del primo emporio punico, fondato probabilmente nel corso del VII secolo a.C., sono testimonianza concreta e significativa le numerose tombe comprese nella vasta necropoli che occupava l'area immediatamente ad ovest della citt?, compresa tra Piazza Indipendenza, Corso Calatafimi, Corso Pisani, Via Cuba, Via Cappuccini e Via Pindemonte. Dal 1746 - anno delle prime scoperte avvenute in occasione della costruzione del Reale Albergo dei Poveri, ad oggi, sono state rinvenute oltre settecento tombe, alcune delle quali, adeguatamente rappresentative dei vari rituali funerari e delle diverse tipologie tombali, sono oggi visibili nell'area della Caserma Tuk?ry di Corso Calatafimi. La necropoli copre un arco cronologico compreso tra la fine del VII e gli inizi del III secolo a.C. e comprende, sotto il profilo tipologico, sia tombe a camera ipogeica che inumazioni in sarcofago litico e deposizioni in fossa terragna o in cinerario	Corso Calatafimi,100	Necropoli Punica	
38.1232298	13.3672562	Regione Siciliana	Archeologico	Zone Archeologiche	?900	Si trovava sul lembo di terra a nord dell'imboccatura del porto della cala ed era costituito da una vera e propria cittadella militare. Edificato a partire dal X secolo, durante la dominazione araba, aveva al centro il mastio turriforme. Una vasta spianata lo separava dalla citt?. Potenziato in epoca normanna, il castello fu fortificato nel 1496, durante il regno di Ferdinando il Cattolico. In quell'epoca venne costruito il corpo d'ingresso con due torrioni affiancati, al centro dei quali era il fornice e, su questo, lo stemma reale. Nel 1535, nell'ambito delle opere di fortificazione della citt? decise dal vicer? Don Ferrante Gonzaga, furono costruiti i baluardi ed i fossati a difesa del Castellammare, che diveniva il punto di forza principale della nuova cinta bastionata della citt?. Inoltre, nel timore di eventuali sommosse cittadine, veniva potenziata la difesa del fortilizio anche verso la citt? con la costruzione di due grossi baluardi rivolti verso il piazzale occidentale: il bastione di S. Pietro ed il baluardo di S. Pasquale. Nella piazza, denominata piazza Castello, fu posta nel 1722 la statua di S. Giovanni Nepomuceno. Il forte era costituito da una poderosa cinta bastionata di forma trapezoidale con una serie di edifici, disposti lungo il perimetro, che lasciavano una vasta area libera attorno al mastio. Nell'area della fortezza era anche la chiesa parrocchiale di S. Silvestro. Nel 1517 il Castello fu per breve tempo sede del vicer?	Via Filippo Patti	Castello a Mare	
38.1135516	13.3694001	Associazione Esperanza Socio-Culturale	Chiese	Chiese e Oratori	?metà 1100		Piazza Magione, 44	Chiesa della SantissimaTrinità o Magione	Arabo-Normanna
38.1137422	13.3556064	Arcidiocesi di Palermo	Musei	Gallerie d'Arte e Musei	?metà 1400	Situato all'interno del Palazzo Arcivescovile, il quale fu realizzato nella met? del XV secolo per volere dell'Arcivescovo Simone Beccadelli, in sostituzione del pi? antico edificio che stava alle spalle della Cattedrale. Della costruzione quattrocentesca, addossata al torrione medievale, si ammirano ancora oggi l'elegante trifora gotico-fiammeggiante e il portale gotico-catalano di ascendenza napoletana. Tra il cinquecento e il seicento il palazzo venne ampliato in modo consistente con la realizzazione del primo ampio cortile e dei balconi sul piano della Cattedrale che sostituirono l'antico loggiato. Nei secoli successivi l'edificio sub? ulteriori importanti trasformazioni soprattutto negli interni che divennero tra i pi? fastosi di Palermo anche per il ruolo politico che spesso assumeva l'Arcivescovo della citt? come temporaneo Presidente del Regno. Rimangono oggi parti del ciclo di affreschi, realizzati tra il 1733 e il 1734 da Guglielmo Borremans e le pitture del romano Gaspare Fumagalli che coprirono le volte e le pareti del palazzo con splendide finte prospettive. Nel 1972, per volere dell'Arcivescovo Salvatore Pappalardo i saloni di rappresentanza del palazzo sono stati destinati a sede del Museo Diocesano. Il museo si sviluppa attraverso 15 sale in attesa che siano completati i restauri del Piano Nobile del palazzo. La collezione si propone di offrire ai visitatori uno sguardo su oltre otto secoli di storia della Chiesa palermitana. Sono state selezionate circa 200 tra pitture, sculture e opere d'arte decorativa che vanno dal XII al XIX secolo, provenienti per lo pi? da chiese palermitane distrutte, non pi? officiate o non in buone condizioni di sicurezza. Tra le opere esposte, si ricordano: il mosaico con la Madonna orante, il Ruolo dei confrati defunti di Antonio Veneziano, Madonna della Spersa, l'Incoronazione di Santa Rosalia di Vito D'Anna, trifora gotico-flamboyant di derivazione catalana, testimone della origini tardoquattrocentesche del palazzo Arcivescovile, il Giovane cavaliere giacente attribuito a Francesco Laurana, il paliotto con la Presentazione di Santa Rosalia alla Vergine, ricamato in seta e coralli etc.	Via Matteo Bonello, 2	Museo Diocesano	
38.1119601	13.3692452	Citt? Metropolitana di Palermo	Palazzi	Palazzi	?metà 1800	Costruito nella prima met? dell'800 in via Lincoln dai baroni di Verbumcaudo	Via Lincoln, 71	Palazzo Jung	
38.1089367	13.3540243	Regione Siciliana	Spazi Verdi	Giardini Pubblici e Spazi Verdi	?metà 1800	"Il Parco d'Orl?ans fa parte dell'omonima villa, che ospita la sede della Presidenza della Regione Sicilia. Il parco fu costruito verso la met? dell'Ottocento e fu per lungo tempo utilizzato come luogo di sperimentazione agraria. Recentemente ? stato trasformato in un interessante parco ornitologico, popolato da molte specie di uccelli, esotiche e dell'area mediterranea. ? l'unico parco ornitologico d'Italia e uno dei pochi esistenti in Europa. Oltre alle numerose specie di pappagalli esotici rari, come Ara e Conuri, ? possibile osservare cicogne, fenicotteri, pellicani rosa e uccelli autoctoni oggi estinti in Sicilia, come l'avvoltoio Capovaccaio, il Pollo Sultano, il Francolino, il Gufo e il Cavaliere d'Italia. Sono presenti anche dei cerbiatti. Il parco ?' parte di un grande progetto, il ""Parco Ninni Cassar?"", secondo solo alla ""Favorita"" , inaugurato nel novembre del 2011."	Corso Re Ruggero	Parco d'Orleans	
38.1100937	13.3521357	Fondazione FEDERICO II	Chiese	Chiese e Oratori	1130 – 1132	Ubicata al primo piano del Palazzo dei Normanni, fu realizzata tra il 1130 ed il 1132 ai tempi del regno di Ruggero, come cappella del Palazzo Reale. Nel 1132 fu elevata a Parrocchia e fu intitolata a SS. Pietro e Paolo, ma col passare del tempo la doppia intitolazione venne dimenticata e la Parrocchia viene chiamata semplicemente di S. Pietro. Ma sta di fatto che la navata laterale di destra ? decorata con episodi della vita di S. Paolo e quella di sinistra con episodi della vita di S. Pietro. Essa rappresenta la sintesi, ben riuscita, dell'aspirazione dei re normanni a ripristinare il mondo culturale della religione cristiana, attingendo nel contempo al collaudato mondo musulmano per decorazioni sfarzose degne del potere regio. La cappella ? interamente coperta da una incantevole decorazione musiva in oro eseguita da maestranze bizantine che riporta temi iconografici religiosi, nella cui cupola troneggia un maestoso Cristo pantocratore attorniato da Angeli ed Arcangeli. La Cappella ha tre navate separate da dieci colonne, cinque per lato, di granito egiziano. Il pavimento ? di mosaico secondo un disegno che reca motivi uguali e continuamente ripetuti	Piazza Indipendenza	Cappella Palatina	Arabo-Normanno
38.1092429	13.3551666	Regione Siciliana	Chiese	Chiese e Oratori	1130 – 1148	La Chiesa di S. Giovanni degli Eremiti, uno dei pi? insigni edifici medievali di Palermo e uno dei monumenti-simbolo della citt?, fu costruita in epoca normanna, tra il 1130 e il 1148, sotto il regno di Ruggero II, ma radicalmente restaurata nel 1882 da Giuseppe Patricolo. Il modulo costruttivo interno della chiesa ? dato da una struttura cubica sormontata da una cupola. Tale modulo si ripete cinque volte: due nelle campate dell'unica navata, tre nel transetto. L'accostamento del quadrato, che rappresenta la terra, al cerchio, che rappresenta il cielo, ricorre sia nella cultura islamica fatimita sia in quella bizantina. L'interno ? nudo e raccolto. La navata centrale ? suddivisa trasversalmente da un robusto arco ogivale uguale all'altro che limita anteriormente il transetto. Questo ha tre absidi semicircolari delle quali solo la centrale si pronunzia all'esterno oltre la struttura del muro. Annesso alla chiesa, vi ? il Chiostro, di datazione problematica, verosimilmente del XIII secolo. Esso si presenta di forma rettangolare, con gli archi a sesto acuto su colonnine binate.	Via Dei Benedettini	Chiesa di San Giovanni degli Eremiti	Arabo-Normanno
38.1172141	13.3574302	Arcidiocesi di Palermo	Chiese	Chiese e Oratori	1173 – 1178	"Nel luogo dove oggi ? ubicata la chiesa, tra il 1173 ed il 1178 venne costruito il monastero cistercense di S. Spirito dove avvenne, nel 1282, lo storico episodio dei cosiddetti ""Vespri siciliani"": il 31 marzo, luned? di Pasqua, nell'ora del vespro, un soldato francese rec? offesa all'onore di una giovane siciliana accompagnata dal consorte, il quale, per difendere la moglie, riusc? a sottrargli la spada e a ucciderlo; tale gesto costitu? la scintilla che dette inizio alla rivolta e, quindi alla scacciata dei francesi dalla Sicilia. Passato ai Padri Olivetani, costretti a lasciare il convento dello Spasimo nel 1573, fu rimaneggiato in epoca barocca e risultava abbandonato alla fine del '700 quando, per volere del vicer? Caracciolo, venne creato il cimitero di S. Orsola, cos? chiamato, poich?, era la Santa protettrice della Compagnia dell'Orazione della morte che si occup? della sua realizzazione. Nel 1882 la chiesa fu sottoposta a pesanti lavori di restauro che, seppure con qualche fantasia, riportarono alla luce le strutture normanne. Infatti l'edificio rappresenta il risultato armonioso di una contaminazione fra gli stili arabo-normanno e gotico. Le pareti esterne sono decorate con eleganti fasce bicrome; l'interno ? distribuito in tre navate da massicci pilastri, circolari nelle navate e rettangolari nel transetto; le tre absidi sono introdotte da colonnine inalveolate. Sopra l'altare maggiore ? posto un Cristo dipinto su tavola di legno del XVI secolo."	Via Santo Spirito	Chiesa di Santo Spirito o dei Vespri	
38.1164876	13.3664166	Arcidiocesi di Palermo	Chiese	Chiese e Oratori	1255 – 1277		Piazza San Francesco d'Assisi	Chiesa di San Francesco d'Assisi	Gotico-catalano,Barocco
38.1131071	13.3672054	Regione Siciliana	Palazzi	Palazzi	1490 – 1495	"Magnifica residenza di Guglielmo Ajutamicristo, ricco mercante pisano, divenuto nobile con la sua attivit? di banchiere, il quale commission?, nell'ultimo decennio del '400, all'architetto Matteo Carnalivari la realizzazione del palazzo. Lo storico palazzo fu in quel tempo la dimora prediletta di ospiti illustri. Nel 1500 ospit? la regina Giovanna, moglie del re Don Ferrante di Napoli; nel 1535 vi soggiorn? l'imperatore Carlo V, non potendo alloggiare nel Palazzo Reale non adatto alla sua magnificenza; nel 1576 vi fu ricevuto Don Giovanni d'Austria, fratello del re Filippo II, vincitore della battaglia di Lepanto. Dopo essere passato di propriet? ai Moncada principi di Patern?, nell'800 fu venduto alla famiglia Calefati di Canalotti e Tasca d'Almerita, che, ancora oggi detengono la propriet? di una parte del palazzo, dato che l'altra parte ? stata acquistata dalla Regione Siciliana. L'edificio si presenta con un impianto tardo-quattrocentesco, rimaneggiato pi? volte durante i secoli. Di particolare interesse ? la sala da ballo dal soffitto affrescato da Giuseppe Crestadoro, raffigurante ""La Gloria del Principe Virtuoso"", la cui superficie, di 200 mq, si affaccia sulla terrazza fiorita."	Via G. Garibaldi, 23	Palazzo Ajutamicristo	Gotico-catalano,Tardogotico,Rinascimentale,Barocco
38.1172195	13.365283	Arcidiocesi di Palermo	Chiese	Chiese e Oratori	1526 – 1617	La chiesa fu eretta tra il 1526 ed il 1617 dalla Congregazione della Nazione dei Napoletani, provenienti in gran parte da Cava dei Tirreni. L'ingresso ? posto all'interno di un portico trapezoidale. Interessante ? il portale rinascimentale, posto al suo interno, ornato da colonne, intagli, fregi e timpano semicircolare. L'interno ? suddiviso in tre navate da eleganti archeggiature su alte colonne in marmo. All'incrocio col transetto si innalza la cupola, sorretta da bizzarri mensoloni che formano la base ottagonale del tiburio. Le navate laterali sono coperte da volte a padiglione, mentre la navata centrale ? coperta da volta a botte con grandi vele in corrispondenza delle finestre. La cupola ha un rivestimento esterno di mattoni smaltati azzurri e lanternino. La splendida decorazione a stucco, realizzata nel XVIII secolo che copre il catino dell'abside, i timpani, le cappelle, i mensoloni della cupola e le navate ? opera di Procopio Serpotta. La chiesa conservava alcuni arredi e dipinti del XVIII secolo, in parte recuperati, ed era dotata di un magnifico organo, opera tardo-cinquecentesca di Raffaele La Valle. Degli arredi sacri rimane oggi, sull'altare maggiore, una Madonna lignea dell'800.	Corso Vittorio Emanuele	Chiesa di San Giovanni dei Napoletani	
38.1152651	13.3628624	Associazione Turistico Culturale Itiner'ars	Chiese	Chiese e Oratori	1566 – 1596	"Appartenente all'ordine Domenicano, fu costruita tra il 1566 e il 1596. La chiesa si sviluppa longitudinalmente, attraversata dal transetto su cui si innesca la cupola. La facciata tardo-rinascimentale risulta severamente forzata; in essa sono ancora presenti portale e finestre di derivazione gaginesca. Al centro, sul portale affiancato da colonne, ? posta una statua in marmo di S. Caterina del 1685. Notevole esempio di architettura religiosa in stile barocco: il suo interno, ad un'unica navata, presenta un formidabile addobbo decorativo settecentesco; le sue pareti sono coperte, ininterrottamente, da un ricco manto marmoreo policromo. Sull'ingresso ? il coro, ingrandito nel 1683, retto da colonne a spira in marmo rosso. Il sottocoro fu decorato con affreschi eseguiti da Francesco Sozzi nel 1769, e rappresentano scene tratte dalla vita della Santa. La volta, con rabeschi in stucco dorato, fu dipinta da Filippo Randazzo nel 1744 con la ""Gloria di S. Caterina"". Gli affreschi della cupola, eseguiti nel 1751, con il ""Trionfo dei Santi Domenicani"", sono opera di Vito d'Anna. Di notevole interesse sono i preziosi quadri in marmi mischi e bassorilievi posti alla base delle lesene, nella navata, che raffigurano: la ""Storia di Giona""e il ""Sacrificio d'Isacco"". Il presbiterio fu magistralmente ideato da Giacomo Amato e dotato da vari scultori di una decorazione particolarmente fine e sfarzosa; il sontuoso altare maggiore ? in pietre dure con tabernacolo in ametista."	Piazza Bellini	Chiesa di Santa Caterina d'Alessandria	Barocco
38.1206831	13.361369	Arcidiocesi di Palermo	Chiese	Chiese e Oratori	1598 – 1622		Piazza Olivella, 1	Chiesa di Sant'Ignazio all'Olivella	Barocco
38.1148185	13.365195	Arcidiocesi di Palermo	Chiese	Chiese e Oratori	1606 – 1632	Costruita tra il 1606 e il 1632, nel luogo dove esisteva una piccola chiesa dedicata a S. Maria della Piet?. La splendida e scenografica facciata barocca fu realizzata nella prima met? del XVIII secolo su progetto del trapanese Giovanni Biagio Amico, il quale predispose un paramento murario sinuoso, mosso dagli effetti chiaroscurali delle colonne aggettanti e delle nicchie	Piazza Sant'Anna	Chiesa di Sant'Anna La Misericordia	
38.1148988	13.3591109	Arcidiocesi di Palermo	Chiese	Chiese e Oratori	1612 – 1645	"Costruita tra il 1612 e il 1645, su progetto del teatino Giacomo Besio. Danneggiata dai bombardamenti del 1943, la chiesa ? stata restaurata e riaperta nel 1966. La facciata principale fu ultimata solo nel 1844 in stile neoclassico; nella nicchia sopra il portale ? la statua del Santo titolare; sotto ? posto lo stemma dei Falegnami che qui avevano la loro chiesetta intitolata a S. Elia. L'interno ? grandioso, ripartito in tre navate da altissime colonne monolitiche, ha profondo presbiterio con abside semicircolare; sugli arconi del transetto si innalza la slanciata cupola. Particolarmente fastosa ? la decorazione interna: tutti i soffitti sono interamente affrescati; le pareti e le cappelle laterali sono rivestite in marmi mischi; gli altari presentano eleganti elaborazioni in pietre semipreziose; anche gli arredi lignei sono concepiti secondo un calibrato spirito decorativo barocco. Ai lati dell'ingresso sono due acquasantiere in marmo, rette da angeli in stucco, eseguite alla fine del '700 da Ignazio Marabitti e Filippo Siragusa. La volta della navata centrale illustra con affreschi seicenteschi di Filippo Tancredi, episodi della ""vita di S. Gaetano"" tra stucchi dorati; nelle vele degli archi sono le ""figure degli Apostoli"", iniziate nel 1798 da Giuseppe Velasquez e compiute da Vincenzo Manno. La cupola fu dipinta con il ""Trionfo di S. Andrea d'Avellino"" nel 1734 da Guglielmo Borremans."	Corso Vittorio Emanuele	Chiesa di San Giuseppe dei Teatini	Barocco
38.1186465	13.3540543	Arcidiocesi di Palermo	Chiese	Chiese e Oratori	1612 – 1645	"Costruita tra il 1612 e il 1645, su progetto del teatino Giacomo Besio. Danneggiata dai bombardamenti del 1943, la chiesa ? stata restaurata e riaperta nel 1966. La facciata principale fu ultimata solo nel 1844 in stile neoclassico; nella nicchia sopra il portale ? la statua del Santo titolare; sotto ? posto lo stemma dei Falegnami che qui avevano la loro chiesetta intitolata a S. Elia. L'interno ? grandioso, ripartito in tre navate da altissime colonne monolitiche, ha profondo presbiterio con abside semicircolare; sugli arconi del transetto si innalza la slanciata cupola. Particolarmente fastosa ? la decorazione interna: tutti i soffitti sono interamente affrescati; le pareti e le cappelle laterali sono rivestite in marmi mischi; gli altari presentano eleganti elaborazioni in pietre semipreziose; anche gli arredi lignei sono concepiti secondo un calibrato spirito decorativo barocco. Ai lati dell'ingresso sono due acquasantiere in marmo, rette da angeli in stucco, eseguite alla fine del '700 da Ignazio Marabitti e Filippo Siragusa. La volta della navata centrale illustra con affreschi seicenteschi di Filippo Tancredi, episodi della ""vita di S. Gaetano"" tra stucchi dorati; nelle vele degli archi sono le ""figure degli Apostoli"", iniziate nel 1798 da Giuseppe Velasquez e compiute da Vincenzo Manno. La cupola fu dipinta con il ""Trionfo di S. Andrea d'Avellino"" nel 1734 da Guglielmo Borremans."	Via Porta di Carini	Chiesa di San Gregorio Papa	
38.111634	13.364215	"Associazione Culturale ""Progetto Zyz"""	Chiese	Chiese e Oratori	1625 – 1628		Via Maqueda, 59	Chiesa dell'Assunta	Barocco
38.111274	13.3620289	Arcidiocesi di Palermo	Chiese	Chiese e Oratori	1627 – 1693	L'esistenza del complesso monastico dei padri Carmelitani ? documentata fin dal l'epoca normanna. Nel XII secolo infatti venne loro assegnata la chiesa medievale intitolata alla Madonna della Piet?, demolita nel corso del secolo successivo per la costruzione di una nuova e pi? grande chiesa e dell'edificio conventuale. La chiesa attuale ? invece opera seicentesca, costruita tra il 1626 e il 1667 su progetto di Mariano Smiriglio. La facciata sulla piazza venne terminata nel 1814	Piazza del Carmine	Chiesa di Santa Maria del Carmine	Barocco
38.1090313	13.3590138	Arcidiocesi di Palermo	Chiese	Chiese e Oratori	1685 – 1710	"Realizzata tra il 1685 e il 1710 in stile barocco dall'architetto gesuita Angelo Italia. Il monumento ? ispirato agli edifici borrominiani di Roma tanto nella generale concezione della pianta e dell'alzato quanto nei bizzarri particolari architettonici. L'esterno ? dominato da un'ampia cupola cui sottostanno altre quattro cupolette minori. La facciata si sviluppa longitudinalmente, uniforme al primo ordine ma animata al secondo dai vivaci campanili (di cui uno ipotetico) e dal corpo centrale di moderata altezza. Il suo interno ha uno schema a croce ""greca"", con le quattro cappelle angolari di forma esagonale, circondate da colonnati; tutto ci? da luogo ad uno spazio centrale ottagonale da cui si sviluppa la cupola sorretta da coppie di colonne e dagli archi che delimitano le cappelle. All'estrema ricchezza dell'articolazione spaziale si unisce un elegante manto decorativo in marmi mischi, realizzato tra la fine del XVII e l'inizio del XVIII secolo da Tommaso Maria Sciacca. La chiesa accoglie alcune notevoli opere d'arte: la prima cappella a sinistra ? quella di S. Calcedonio con quadro del santo di Gaspare Serenario e nella terza cappella di destra ? la statua lignea di S. Michele Arcangelo opera del trapanese Antonio Rallo."	Piazza San Francesco Saverio	Chiesa di San Francesco Saverio	
38.1160324	13.37305	Arcidiocesi di Palermo	Chiese	Chiese e Oratori	1688 – 1706	"Costruita tra il 1688 ed il 1706 dalle suore del vicino convento di Carmelitane Scalze su un'area che, in epoca musulmana, era servita da cimitero. Il progetto della chiesa fu redatto da Giacomo Amato. Splendida ? la facciata barocca su tre ordini, che si affaccia sulla piazza Kalsa, la quale risulta mossa dal ritmo serrato delle colonne e dei vigorosi intagli in pietra e dall'alternanza di nicchie con statue di Santi domenicani. Sul portale ? un pregevole tondo in marmo raffigurante la Sacra Famiglia, opera seicentesca di Cristoforo Milanti. L'interno, ad unica navata con profonde cappelle laterali, ? impreziosito da un'elegante decorazione a stucco con accenni dorati, e contiene molte importanti opere del XVII e XVIII secolo, tra le quali si ricordano: la ""Trasverberazione di S. Teresa"" del Borremans; l'apparato scenico di grande effetto plastico della cappella del Crocifisso eseguita da Ignazio Marabitti; l'altare maggiore in marmi mischi e pietre semipreziose; le statue di S. Teresa e di S. Anna di Giacomo Serpotta e, alle pareti, quattro quadri, opera di Antonio Grano, che rappresentano i ""Simboli Eucaristici etc. Sull'ingresso ? il coro sostenuto da otto colonne di marmo di Billiemi. Gli altari laterali si aprono ad arco sui fianchi della chiesa, alternati ai coretti barocchi in legno intagliato e decorati in stucco. Dietro l'altare maggiore ? posta la grande tela di Gaspare Serenario con la ""Proclamazione della maternit? divina di Maria"" del 1746."	Piazza Kalsa	Chiesa di Santa Teresa alla Kalsa	Barocco
38.132347	13.321649	Arcidiocesi di Palermo	Chiese	Chiese e Oratori	1730-1733		Piazza S. Alfonso dei Liguori	Chiesa Ecce Homo	Barocco
38.1160083	13.3519929	Arcidiocesi di Palermo	Chiese	Chiese e Oratori	1732 – 1750		Via delle Cappuccinelle, 109	Chiesa del Monastero delle Cappuccinelle	Barocco
38.1125919	13.3635338	Citt? Metropolitana di Palermo	Palazzi	Palazzi	1766 – 1771		Via Maqueda, 100	Palazzo Comitini	Barocco
38.1170093	13.3700429	Distretto Culturale di Palermo	Palazzi	Palazzi	1810 – 1857	Il Palazzo Gravina di Palagonia fu ingrandito ed abbellito nel XVIII secolo, anche se le attuali forme sontuose dell'edificio risalgono agli anni compresi tra il 1810 e il 1857. Il progetto deriva da esempi del Marvuglia. La neoclassica facciata ? imperniata sull'elaborato partito, comprendente il portale con coppie di colonne binate e balcone superiore con coppie di cariatidi. Anche gli interni, decorati da stucchi neoclassici, denotano grande cura del dettaglio. Il palazzo ? stato fortemente danneggiato dai bombardamenti della seconda guerra mondiale e dal terremoto del 1968, distruzioni che hanno reso necessario all'inizio degli anni Ottanta del secolo scorso, l'intervento del Comune, attuale proprietario del palazzo, improntato al recupero totale della struttura.	Via del IV Aprile, 2	Palazzo Palagonia	
38.1326894	13.3504677	Distretto Culturale di Palermo	Spazi Verdi	Giardini Pubblici e Spazi Verdi	1850 – 1853	"Sistemato tra il 1850 e il 1853 da Giovan Battista Filippo Basile, il quale segu? uno schema molto in voga nella seconda met? dell'Ottocento, ovvero non creare uno spazio misurato e geometrico (il cosiddetto ""giardino all'italiana"") ma seguendo le forme e la morfologia naturale del terreno dandogli un'aria pi? naturale creando appunto un ""giardino all'inglese"" (da qui il nome Giardino Inglese). Per rendere l'atmosfera ancora pi? suggestiva furono inserite piante provenienti da tutto il mondo per rendere l'ambiente pi? esotico sempre secondo i dettami della moda in quel periodo. Viali liberi e percorsi sinuosi si snodano tra sette collinette ed anfratti, in parte esistenti ed in parte appositamente realizzati, zone coltivate a boschetto, giardini e siepi dai contorni curvilinei. All'interno della villa sono sistemati busti in marmo, sculture in bronzo ed il monumento ai caduti, opere dei migliori scultori siciliani dell'ultimo '800 e dei primi anni del XX secolo. Tra questi il gruppo dei ""Fratelli"", nel laghetto centrale, opera di Mario Rutelli. Nell'area centrale ? il Castello saraceno, padiglione neo-moresco dove ? sistemato il gruppo dei Fratelli Canaris, opera di Benedetto Civiletti del 1876."	Viale della Libert?, 63	Giardino Inglese	
38.1252	13.35591	Fondazione Orchestra Sinfonica Siciliana	Teatri	Teatri	1867 – 1874	"Il teatro fu edificato tra il 1867 ed il 1874 su progetto di Giuseppe Damiani Almeyda, in stile pompeiano con doppio ordine di deambulatori colonnati esterni e fronte concepito come arco trionfale; su questo poggia una quadriga in bronzo, opera di Mario Rutelli. Il teatro fu ideato come arena diurna e per spettacoli circensi; la copertura fu realizzata dalla Fonderia Oretea in ghisa solo nel 1877. Nel 1890, in vista dell'Esposizione Nazionale che doveva svolgersi l'anno seguente, il teatro venne decorato con pitture di gusto pompeiano: affidandola ai decoratori Gustavo Mancinelli, a cui si deve il fregio delle Feste eleuterie che circondano il finto velario azzurro-cielo, Giuseppe Enea, Rocco Lentini, Giuseppe Cavallaro, Carmelo Giarrizzo, Francesco Padovano e Giovanni Nicolini. Il vestibolo offre un soffitto a lacunari ornati di rilievi e fregi mentre gli ambienti di percorrimento e di sosta, come la grande sala degli Specchi e dei piani superiori dove era collocata in passato la Civica Galleria d'Arte Moderna, sono tutti decorati con pitture di Giuseppe Enea, Rocco Lentini e Giuseppe Cavallaro. Damiani, inoltre, ? anche il progettista dei due maestosi candelabri esterni ed ha curato la sistemazione del Monumento a Ruggero Settimo (Benedetto De Lisi, 1865) antistante il teatro. Nei giardini ai lati dei due semicerchi della parte frontale del maestoso edificio, che occupa circa 5000 mq, si possono ammirare le sculture di Valerio Villareale (Baccante), Benedetto De Lisi (Silfide) e Antonio Ugo (David). La sala a ferro di cavallo ha doppio ordine di palchi, balconata e due ordini di gallerie. Nell'atrio d'ingresso ? la ""Danzatrice"" scultura a tutto tondo di Amedeo Cataldi. Nel giugno 1874 fu inaugurato anche se incompleto e ancora privo di copertura, con la rappresentazione de I Capuleti e i Montecchi di Vincenzo Bellini, considerata, per l'epoca, un' opera di grande ingegneria. All'inizio, il teatro doveva essere intitolato a Gioacchino Rossini in occasione della sua morte, ma non se ne fece nulla; per oltre vent'anni il teatro principale per la lirica della citt? di Palermo, si chiam? solo Teatro Municipale Politeama, finch? nel 1882, dopo la morte di Garibaldi, prese il nome di Politeama Garibaldi. Dal 2001 il teatro ? la prestigiosa sede della Fondazione Orchestra Sinfonica Siciliana ed ? un punto di riferimento di grande importanza, sia come collocazione che come notoriet?, per la Citt? di Palermo tanto che le due grandi piazze (Ruggero Settimo e Castelnuovo), su cui si affaccia, vengono comunemente chiamate Piazza Politeama."	Piazza Ruggero Settimo, 15	Teatro Politeama Garibaldi	Neoclassico
38.1193022	13.3433514	Regione Siciliana	Dimore	Dimore e Ville Storiche	1899 – 1902		Viale Regina Margherita, 38	Villino Florio	Liberty
38.0926085	13.3869508	Regione Siciliana	Monumenti	Monumenti	998 – 1019	"Cos? chiamata poich? deriva dal termine arabo ""al-Fawwarah"", ovvero ""sorgente d'acqua"", ed ? anche detta di Maredolce, poich? nelle vicinanze un lago artificiale vi si trovava. Costruito durante la dominazione musulmana come dimora per l'Emiro, fu restaurato in epoca normanna con l'aggiunta di una cappella e pi? volte rimaneggiato durante i successivi secoli. Dopo anni di totale incuria, il castello ? stato acquisito dalla Regione ed ? in fase di restauro. Il palazzo costituisce un unicum del genere: la massa compatta, in cui prevale la dimensione orizzontale, si svolge in continuit? attorno ad un vasto cortile porticato, di cui rimangono ampi brani. A questo impianto, derivato da esempi nord-africani, si associa l'uniformit? dei paramenti ed un'accurata definizione esterna che attestano l'organicit? dell'intervento normanno. Il fronte settentrionale comprende l'appartamento nobile, la chiesa ed il grande fornice d'accesso alla corte interna. Di notevole interesse ? la Cappella dei Santi Filippo e Giacomo, posta sul lato nord-occidentale del castello, si presenta ad unica navata e l'elemento pi? singolare ? sicuramente la cupola in stile orientale."	Vicolo Castellaccio	Castello della Favara o Maredolce	Arabo-Normanno
38.1165913	13.368641	Regione Siciliana	Palazzi	Palazzi		"Le origini della famiglia Filangeri risalgono al periodo normanno. Provenienti da Napoli, per sfuggire agli Angioini, assumeranno una importanza notevole per i numerosi feudi, ma anche per le importanti cariche che vestiranno sia in ambito civile che religioso. Nella prima met? del '600, Giuseppe Filangeri venne nominato principe di Mirto. L'aspetto odierno del palazzo rispecchia a grandi linee quello voluto intorno al 1793 dal principe Bernardo. Di notevole interesse sono: la Sala Salvatore Rosa, chiamata cos? per la presenza di dipinti realizzati dall'artista napoletano; lo stanzino del trucco con una toiletta in stile Luigi XV e quello del fumo con le pareti in cuoio bulinato e dipinto; il Salone dei Ricevimenti con le decorazioni pittoriche realizzate dal Velasco ed il Salone del Baldacchino con le pareti interamente ricamate a ""pittoresco"" con scene della ""Gerusalemme Liberata"" e il soffitto affrescato dall'Interguglielmi dove ? celebrata la Gloria di Bernardo Filangeri. Nel 1982 il palazzo fu donato da Maria Concetta Filangeri alla Regione Siciliana, divenendo cos? sede museale."	Via Merlo, 2	Palazzo Mirto	
38.1104004	13.3622947	Comune di Palermo	Palazzi	Palazzi		"L'edificio costituisce un'importante testimonianza dell'architettura civile e nobiliare ""minore"" sei-settecentesca della citt?. La sua storia ? legata a quella di due note famiglie aristocratiche: i Tarallo, baroni di Badia, duchi di Miraglia e signori di Ferla, e i Cottone, marchesi D'Altamira. Il palazzo ? il risultato dell'accorpamento di diverse dimore riunite in un progetto ""barocco"" di riconfigurazione complessiva degli apparati decorativi sia interni che esterni. Agli inizi degli anni ottanta del '900, il Palazzo fu acquistato dal Comune di Palermo che, dopo un attento restauro, lo ha adibito a seconda sede del Museo Etnografico Pitr?. Tra i lavori che emergono per valore artistico, furono quelli attribuiti a Pietro Martorana, il quale realizz?, per le sale del piano nobile, quattro grandi affreschi, di cui uno solo ? giunto fino a noi, ovvero ""Storia del trionfo di Betsabea col Re Salomone"". Nelle altre sale del primo piano sono stati collocati due eleganti portantine settecentesche e alcuni manufatti del Museo di gusto e committenza colta e aristocratica, anche se realizzati in quelle stesse botteghe artigiane da cui uscivano opere di uso pi? popolare; tra i quali, alcuni mobili dipinti, di fine '700, in particolare, si tratta di un cassettone, un armadio, un mobile-altare, una ""scarabattola"" e due teche, tutti del XVIII secolo. Nelle sale sono esposte anche una decina di stampe litografiche d'epoca, contenenti l'alfabeto del contadino e motti di saggezza popolare. Al pianterreno, nei locali originariamente adibiti a scuderie e rimessa per le carrozze, si possono ammirare, il frontale del teatrino ottocentesco del Pitr? e il teatrino completo assemblato da Cocchiara nei primi del '900. Nel piano nobile, come omaggio al fondatore del Museo, c'? una ""un angolo della memoria"" dedicato a Giuseppe Pitr?, con il suo tavolo da lavoro, i suoi occhialini ed i suoi libri. Ed inoltre, nei saloni del secondo piano, ? stata allestita la Biblioteca specializzata del Museo, che conta circa 3 mila volumi donati dal professore Bonomo, oltre a numerosi periodici e ad una consistente raccolta di tesi specialistiche svolte da studenti universitari. La biblioteca possiede anche un'importante documentazione iconografica, comprendente una prestigiosa raccolta di stampe e fotografie di autori diversi, come Interguglielmi, Incorpora, Giannone, Uzzo."	Via delle Pergole, 74	Palazzo Tarallo	
38.1217732	13.3419946	"Fondazione ""Giuseppe Whitaker"""	Spazi Verdi	Giardini Pubblici e Spazi Verdi		0	Via Dante Alighieri, 167	Parco di Villa Malfitano	
38.1182029	13.3405826	Comune di Palermo	Musei	Gallerie d'Arte e Musei		"Le ex Officine Ducrot si trovano alle spalle del Castello della Zisa, e contengono ventitre capannoni: esempi interessantissimi di archeologia industriale, con una naturale vocazione a diventare una straordinaria cittadella della cultura, sull'esempio di analoghi luoghi di lavoro obsoleti. Qui furono realizzati i mobili liberty tra i pi? belli d'Europa, disegnati da Ernesto Basile, come gli arredi di Montecitorio e delle grandi navi da crociera dei Florio. Negli anni '90 dall'amministrazione ""Orlando"" sono stati recuperati e ristrutturati tutti gli spazi a centri di cultura, espositivi e teatrali. Oggi quest'area ? utilizzata come spazio espositivo per eventi teatrali, musicali e iniziative culturali di ogni genere. L'area attualmente ospita la sede del ""Centre Culturel Francais de Palerme et de Sicile"", il centro culturale tedesco Goethe-Institut, l'Istituto Gramsci Siciliano (con la relativa biblioteca) e la sede palermitana della Scuola Nazionale di Cinema appartenente al Centro Sperimentale di Cinematografia.Dal 2012 ? sede anche di ZAC_ Zisa Zona Arti Contemporanee, nonch? del cinema De Seta, cinema pubblico intitolato a Vittorio De Seta, illustre regista italiano, nato a Palermo. La Zisa Zona Arti Contemporanee, padiglione dei Cantieri Culturali alla Zisa concepito molti anni fa come sede del Museo d'Arte Contemporanea della Citt? di Palermo, apre con una idea/progetto pi? aderente al momento storico attuale della cultura nel Paese: non un Museo tradizionale ma un luogo dai confini aperti e costantemente in definizione, una Zona appunto, com'? il territorio stesso della creativit? attuale con l'ambizione di divenire il centro di produzione culturale della Citt? di Palermo per le arti contemporanee."	Via Paolo Gili, 4	Cantieri Culturali alla Zisa - Zona Arti Contemporanee (ZAC)	
38.1152018	13.3647759	Distretto Culturale di Palermo	Musei	Gallerie d'Arte e Musei		"Nel 1910 il Ridotto del Teatro Politeama divenne la sede della Galleria d'Arte Moderna Empedocle Restivo. Le ragioni di tale scelta furono motivate dal valore emblematico del monumento, che testimoniava la esaltante stagione della Belle ?poque, e dalla sua stessa collocazione nel cuore della citt? moderna. Dopo quasi un secolo, il Museo si trasferisce nel centro storico della citt?, oggi luogo di ricerca e d'incontro tra le diverse identit? culturali. Nel complesso di Sant'Anna alla Misericordia ? possibile distinguere tuttora le fisionomie architettoniche di una residenza privata del Quattrocento e di un convento seicentesco. Il palazzo fu costruito intorno al 1480 dal mercante catalano Gaspare Bonet e divenne presto un modello per l'edilizia residenziale aristocratica. Nel 1618, il palazzo fu venduto ai Padri Francescani determinando la necessit? di un ampliamento dell'edificio con la costruzione del convento che si protrasse per tutto il Seicento. La galleria espone ben 214 opere, 176 dipinti e 38 sculture, acquistate alla Biennale di Venezia o da collezioni private e ricevute in dono. Esse rappresentano una importante testimonianza dell'arte italiana dal '700 ai primi anni del '900. Il piano terra ? dedicato al genere storico nei formati monumentali; al ritratto tra Neoclassicismo e Romanticismo; al lungo tramonto della mitologia neoclassica; alla celebrazione di Garibaldi tra storia e mito; a Francesco Lojacono e a una nuova immagine della Sicilia. Il primo piano espone le opere riguardanti la poetica del ""vero"" nei temi letterari e nelle scene di genere; Estetismo ed Esotismo tra Otto e Novecento; dipinti di Antonino Leto e la fortuna del paesaggio mediterraneo; Ettore De Maria Bergler e il Naturalismo lirico di fine secolo; le ultime espressioni del paesaggio nel Naturalismo di fine secolo; Michele Catti e il paesaggio interiore. Infine, il secondo piano ospita i dipinti inerenti il gusto delle Biennali di Venezia tra simbolismo e modernismo; i percorsi del Novecento italiano e il Novecento in Sicilia."	Via Sant'Anna, 21	Galleria d'Arte Moderna (G.A.M)	
38.1168727	13.3713284	Regione Siciliana	Musei	Gallerie d'Arte e Musei		"Grandiosa dimora tardo-quattrocentesca e splendida dimora in stile gotico-catalano di Francesco Patella o Abatellis, che fu maestro portolano del regno e pretore della citt?, il quale commission? i lavori di costruzione all'architetto Matteo Carnalivari. Alla sua morte, il palazzo divenne convento benedettino e sul lato nord-orientale venne costruita una piccola cappella rettangolare con volte a crociera; nei secoli successivi vi furono apportati diversi cambiamenti ed ampliamenti. Il palazzo si presenta disposto attorno ad un ampio atrio con un lato porticato. Dal 1953 ? sede della Galleria Regionale della Sicilia, dove sono esposte opere di artisti siciliani medievali, croci tardo-medievali, vasi e manufatti di epoca araba, pitture del sei e settecento. Sicuramente, le opere d'arte di maggior rilievo sono: lo splendido affresco del ""Trionfo della Morte"" di ignoto, realizzato nel XV secolo, ritenuto un capolavoro dell'arte pittorica di quel periodo; il delicatissimo busto di Eleonora d'Aragona eseguito da Francesco Laurana; l'intensa ""Annunziata"" di Antonello da Messina dipinta nel 1473, considerata una autentica ""icona"" del rinascimento italiano, etc."	Via Alloro, 4	Galleria Regionale della Sicilia - Palazzo Abatellis	Gotico-catalano
38.1171671	13.3440297	Regione Siciliana	Musei	Gallerie d'Arte e Musei		Ospitato all'interno del Castello della Zisa, ? stato inaugurato nel 1991 ed ? gestito dalla Sopraintendenza ai Beni Culturali. Il museo espone oggetti prodotti nel periodo della dominazione araba in Sicilia (IX secolo - XI secolo), ma la raccolta ? formata prevalentemente da oggetti d'arte islamica del successivo periodo di dominazione normanna (XI secolo - XII secolo), quando l'influenza della cultura islamica in Sicilia era ancora molto forte. Tra i pezzi notevoli della collezione vi sono diversi utensili e oggetti di arredo in ottone, oro e argento decorati da incisioni spesso impreziosite da fili e lamine sottili d'oro e d'argento	Piazza Guglielmo il Buono	Museo d'Arte Islamica	
38.1207376	13.3570938	Comune di Palermo	Teatri	Teatri		"Per il teatro fu scelta un'area posta tra il nucleo antico della citt? e la nuova espansione settentrionale, quasi a voler sancire la continuit? storica tra le due zone. Il teatro si fece posto tra gli antichi quartieri attraverso radicali demolizioni che interessarono, oltre a tratti della cinta muraria, il quartiere degli aragonesi, ad occidente, ed i complessi monastici di S. Giuliano e delle Stimmate. Il progetto vincitore del concorso, bandito nel 1864, fu quello di Giovan Battista Filippo Basile. Il teatro Massimo Vittorio Emanuele copre un'area di mq 7.730 ed ? stimato il terzo teatro in Europa per estensione, dopo l'Oper? National di Parigi e il Wiener Staatsoper di Vienna, capacit? e requisiti tecnici. L'ingresso ? caratterizzato da un colonnato esastilo su una monumentale gradinata; sulle sponde delle scale sono due opere in bronzo che rappresentano la Tragedia, di Benedetto Civiletti, e la Lirica, di Mario Rutelli. Compositamente il teatro presenta un corpo a due piani, disposto attorno alla sala, dietro cui si sviluppa il palcoscenico; due vestiboli circolari sporgono lateralmente. La sala, coperta da cupola, ed il palco, con tetto a falde, si innalzano esibendo la loro autonomia formale rispetto al contesto dell'edificio. La monumentalit? dell'organismo architettonico fu assicurata dalla scelta dello stile classico ""corinzio-italico"". Il teatro fu compiuto in pi? di vent'anni, dal 1875 al 1897; morto il progettista nel 1891, l'opera venne ultimata dal figlio Ernesto Basile a cui si deve la definizione esterna e la direzione delle opere di finitura interna. Queste comprendono l'arredo del vasto vestibolo d'ingresso, dove ? posto il busto di Vincenzo Bellini, il fastoso allestimento del palco reale, della sala e dei cinque ordini di palchi. La volta della sala fu affrescata da Ettore De Maria Bergler e Rocco Lentini. Nel 1997 venne riaperto dopo un lunghissimo periodo d'abbandono iniziato nel 1974 per motivi di restauro procrastinato. Nel 1990 il teatro ? stato lo scenario di alcune riprese del film Il padrino - Parte III di Francis Ford Coppola, con Al Pacino, in cui il Padrino Michael Corleone si reca a Palermo per assistere al debutto del figlio nella Cavalleria rusticana di Pietro Mascagni."	Piazza Giuseppe Verdi	Teatro Massimo Vittorio Emanuele	Neoclassico
38.1217732	13.3419946	"Fondazione ""Giuseppe Whitaker"""	Dimore	Dimore e Ville Storiche		"La Villa si estende su circa 8 ettari ed ? costituita da una palazzina e un parco. La palazzina fu eretta per la famiglia Whitaker, importanti commercianti inglesi, che fecero la loro fortuna con il ""Marsala"", l'ottimo vino siciliano e su molte altre attivit? siciliane, ne settore navale ad esempio, tra il 1886 e il 1889 su progetto neorinascimentale dell'architetto Ignazio Greco. La villa ? in stile neoclassico cinquecentesco, con colonne doriche formanti una loggia. Al suo interno si possono ammirare: salotti in stile Luigi XV e XVI, una sala da ballo, una per il gioco del biliardo, nonch? una collezione di arazzi fiamminghi del XVI secolo, una coppia di elefantini in smalto cloisonn? provenienti dal palazzo imperiale di Pechino, un clavicembalo settecentesco recentemente restaurato anche nella parte pittorica, una slitta russa tardo settecentesca e collezioni di porcellane, ventagli, coralli trapanesi del '600 e '700, quadri dell'800 siciliano e una rara specchiera veneziana del 6-700. All'esterno un vasto parco; di notevole interesse ? la Sala d'estate, decorata con piante e fiori in stile realistico, tanto da sembrare un prolungamento del giardino. Oggi la villa appartiene alla Fondazione Whitaker che, sotto il patrocinio dell'Accademia Nazionale dei Lincei, ? stata istituita nel 1975, con lo scopo di incrementare le attivit? culturali in Sicilia, con particolare riferimento allo studio della civilt? fenicio-punica, e al mantenimento del suo patrimonio storico artistico custodito nell'isola di Mozia e nella Villa Malfitano, una vera e propria casa-museo."	Via Dante, 167	Villa Malfitano	
38.1056671	13.3344503	Regione Siciliana	Dimore	Dimore e Ville Storiche		0	Via Francesco Speciale	Villa Napoli	
38.1210128	13.3604909	Regione Siciliana	Musei	Gallerie d'Arte e Musei		"Ospitato nell'ex convento dei Padri Filippini, il quale si articolava attorno a tre cortili, due dei quali ancora integri, ed al suo interno si aprivano logge e cappelle private. Dopo il taglio di via Roma ed i danni provocati dalla guerra, restano le strutture del primo cortile tardo-rinascimentale con colonne in marmo grigio e archi policentrici. Una transenna, in pietra ad intaglio, delimita la terrazza superiore; interessanti mascheroni in pietra tra gli archi fungono da gocciolatoi. Sul cortile si aprono a destra due portali cinquecenteschi in pietra da taglio di elegante fattura. Al centro del cortile ? la cinquecentesca fontana del Tritone. In successione assiale si trova il secondo cortile rettangolare, con lati porticati e fontana centrale. Al primo piano, vicino alle scale ? una cappelletta privata con ricche decorazioni seicentesche; al secondo piano ? stata ripristinata la bella loggia seicentesca con pavimento maiolicato. Il primo nucleo del Museo Archeologico risale alla raccolta costituita nel XVIII secolo dal gesuita Ignazio Salnitro che diede origine al Museo Salnitrano, alloggiato allora, nel Collegio Massimo dei Gesuiti al Cassero insieme al primo nucleo della Pinacoteca; entrambe le raccolte vennero trasferite nell'ex Convento dei Filippini nel 1866. Una prima sistemazione fu data tra il 1873 e il 1913 sotto la direzione dell'archeologo Antonio Salinas che accrebbe notevolmente il materiale raccolto attraverso gli scavi in corso all'epoca in tutta l'Isola. L'organizzazione sistematica del Museo avvenne nel 1950, quando si trov? in Palazzo Abatellis la giusta collocazione della Pinacoteca. I reperti archeologici sono sistemati nei locali al piano terra, attorno ai due chioschi, e nelle sale dei due piani superiori ed illustrano la civilt? antica della Sicilia, dall'epoca preistorica all'et? romana. Tra i numerosi reperti, di notevole interesse sono: la preziosa ""Pietra di Palermo"", iscrizione geroglifica del 2900 a.C. ; le Metope provenienti dai templi di Selinunte; grondaie a teste leonine; reperti della civilt? etrusca provenienti da Chiusi; l'Ariete, statua in bronzo del III secolo a.C.; il gruppo bronzeo di ""Ercole che abbatte un cervo"", opera romana proveniente da Pompei etc."	Piazza Olivella, 24	"Museo Archeologico Regionale ""A. Salinas"""	
38.1152018	13.3647759	Distretto Culturale di Palermo	Biblioteche	Biblioteche		0	Via Sant'Anna, 21	Biblioteca della Galleria d'Arte Moderna	
38.1156879	13.3612671	Club Alpino italiano - Sezione della Conca d'Oro di Palermo	Archeologico	Zone Archeologiche		Il Qanat o Kariz ? un sistema di trasporto idrico usato per fornire una fonte affidabile d'approvvigionamento d'acqua per insediamenti umani e per l'irrigazione in ambienti caldi e aridi. Il Qanat Gesuitico Alto si sviluppa nel sottosuolo del quartiere di Altarello e, in particolare, al di sotto di casa Micciulla, nella via nave e nei territori agricoli circostanti. Lungo tutto il cunicolo, alto generalmente 1,55 metri e largo 0,60-0,80 metri, si aprono sulla volta, a distanze variabili tra i 20 e i 50 metri, pozzi seriali che consentivano l'accesso al cunicolo per evacuare il materiale estratto e per ventilare l'ipogeo. La pendenza di tali cunicoli varia tra il 4 e il 6 per mille, in tale maniera si evitava l'instaurarsi di fenomeni erosivi. Il Qanat Gesuitico Alto ha un cunicolo con uno sviluppo percorribile di circa 1100 metri	Fondo Picciullo	Qanat Gesuitico Alto	
38.1117148	13.3553418	Regione Siciliana	Archeologico	Zone Archeologiche		"Il complesso delle case romane che occupano una porzione della Villa Bonanno all'interno di Piazza della Vittoria fu casualmente scoperto nel dicembre del 1868 dal Direttore delle Antichit? di Sicilia Francesco Saverio Cavallari e comprendono i resti di due sontuose dimore, ovvero, ""un palagio contenente una sala basilicale"" ascrivibili alla met? del IV secolo a.C. Il primo edificio, posto all'ingresso, era formato da due peristili (ampi cortili a colonne), uno di questi, oggi sotterrato. Il peristilio visibile si articola su una superficie di quasi 180 mq ed ha una forma trapezoidale: nove supporti verticali sui lati lunghi e sei sui lati brevi costituivano il porticato; un doppio ordine di colonne doriche delimitava i lati est, ovest e sud, mentre il lato nord era caratterizzato da quattro colonne di ordine ""gigante"" e due pilastri angolari. Sul lato settentrionale si apriva una esedra, sala di rappresentanza decorata da un ricco pavimento a mosaico raffigurante la ""caccia di Alessandro"". Sul lato meridionale del portico, addossata ad una colonna, venne realizzata una scenografica fontana con vasca rivestita all'interno di un intenso colore azzurro e decorata, all'esterno, da intonaci a motivi vegetali e da una nicchia rivestita di lastre marmoree. Nella parte centrale del peristilio sono visibili sei plinti in arenaria, dei quali oggi uno mancante, che reggevano i supporti verticali a sostegno, probabilmente, di un pergolato. Al centro di questa struttura ? una fontana di forma pressoch? circolare, orientata verso la fontana maggiore . Al centro della vasca, un tempo rivestita da lastre di marmo, zampillava l'acqua. Sull'asse tra le due fontane sono i resti di una terza, di minori dimensioni e di forma ottagonale. I due edifici sono divisi da una strada larga 4 metri. I resti del secondo edificio riguardano parte delle strutture e degli apparati decorativi. Esso si articola in due distinte strutture: un nucleo ""abitativo"" con peristilio e un insieme di ambienti, probabilmente a carattere termale. Dall'atrio, attraverso una sorta di vestibolo, decorato al centro con un mosaico raffigurante Nettuno su quadriga, si giungeva ad una sequenza di tre ambienti disposti lungo l'asse longitudinale dell'edificio caratterizzati da una ricchissima pavimentazione musiva. I mosaici, strappati nel corso delle prime indagini di inizio secolo, sono oggi esposti al Museo Archeologico Regionale ""A. Salinas""."	Piazza Vittoria	Resti di case romane Area Archeologica Villa Bonanno	
38.1100902	13.3520862	Regione Siciliana	Biblioteche	Biblioteche		0	Piazza Indipendenza, 1	Biblioteca dell'Osservatorio Astronomico	
38.1282475	13.3463207	Comune di Palermo	Spazi Verdi	Giardini Pubblici e Spazi Verdi		Nel giardino, d'impianto simile ad un orto botanico si trovano robinie, araucarie, oleandri, conifere, palme, ficus magnolioides e querce, per un totale, nel 1910, di 2.790 specie di piante (oggi circa 150 specie).	Via Antonio Salinas, 3	Parco di Villa Trabia	
38.114529	13.374817	Distretto Culturale di Palermo	Spazi Verdi	Giardini Pubblici e Spazi Verdi		Intitolata alla viceregina Giulia D'Avalos, moglie del vicer? Marcantonio Colonna di Stigliano,nel sito dove, anticamente, veniva utilizzato dai pescatori, dell'antico quartiere della Kalsa, per stendere le reti ad asciugare, e, successivamente, era stato scelto come luogo per l'esecuzioni capitali. Fu realizzata nel 1777, e rappresenta il primo giardino pubblico d'Italia. L'impianto della villa, dal netto perimetro quadrato, secondo il progetto di Nicol? Palma, realizza uno schema di giardino all'italiana, dalle precise regole geometriche: viali simmetrici si intersecano secondo due principali direzioni, ortogonale e diagonale, formando un secondo quadrato, diagonale al primo, ed una piazza centrale circolare	Via Lincoln	Villa Giulia	
38.1195719	13.3506925	APCOA Parking	Parcheggi	Parcheggi pubblici		0	Piazza Vittorio Emanuele Orlando, 49	Parcheggio Orlando	
38.1151775	13.3600792	Regione Siciliana	Musei	Gallerie d'Arte e Musei		"L'area su cui sorse il palazzo era occupata fin dal XVI secolo da palazzo Afflitto, il quale fu acquistato da Giuseppe Emanuele Ventimiglia e Cottone, principe di Belmonte, che lo fece riedificare completamente da Giuseppe Venanzio Marvuglia a partire dal 1780. passato ai principi di Pandolfina e nel 1841 a Giovanni Riso, divenne nel 1935 ""Casa del Fascio""; centrato dai bombardamenti del 1943 fu abbandonato ai vandali che asportarono quanto non distrutto dalle bombe. Il prospetto ? l'unica struttura rimasta integra ed ? caratterizzato dalla presenza di lesene ornate da capitelli; da un portale d'ingresso affiancato da colonne e da una lunga balconata, corrispondente al piano nobile. Dopo un attento restauro, dal 2005 ? divenuto sede del Museo d'Arte Contemporanea della Sicilia; il cui percorso espositivo, curato da Francesco Andolina, parte da una prima tranche di opere che coprono circa sessant'anni di storia, dai siciliani Carla Accardi, Pietro Consagra, Salvo, Antonio Sanfilippo ed Emilio Isgro', fino a Croce Taravella, Alessandro Bazan, Laboratorio Saccardi, con un'incursione autorizzata di chi ha lavorato in Sicilia, Jannis Kounellis, Richard Long, Christian Boltanski. Oltre alla colleazione permanente, il museo ospita, anche delle mostre temporanee."	Via Vittorio Emanuele, 365	Museo d'Arte Contemporanea della Sicilia	
38.1171169	13.370226	Teatro Ditirammu	Teatri	Teatri		Il Teatro Ditirammu, canti e memorie della tradizione popolare, con i suoi 52 posti a sedere, nel cuore del centro storico dei Palermo, ? uno tra i pi? piccoli in Italia e certamente ? l'unico del genere in Sicilia. I suoi fondatori e direttori artistici sono Vito Parrinello e Rosa Mistretta, uniti anche nella vita, che con i figli Elisa (danza di figura, canto e flauto) e Giovanni (tamburello e percussioni) continuano una tradizione di famiglia che trova origine nella storia personale di Vito e nella voce e nell'interpretazione del canto popolare di Rosa. Passionalit?, carattere, spontaneit?, forza poetica, desiderio di comunicare emozioni e sentimenti. Queste caratteristiche fanno di Rosa Mistretta l'interprete naturale di tutti i brani musicali del repertorio della casateatro Ditirammu. Rosa non ? figlia d'arte, ma ha vissuto in un ambiente sensibile alla musica, alla pittura in cui ? stata incoraggiata, soprattutto dal padre, spinta ad esprimere sensazioni e talento, attraverso il canto e la danza.	Via Torremuzza, 6	Teatro Ditirammu	
38.117521	13.355727	Comune di Palermo	Biblioteche	Biblioteche			Cortile Scalilla al Capo	Biblioteca Comunale Il Piccolo Principe	
